{"type": "FeatureCollection", "features": [{"type": "Feature", "properties": {"statewide_rank": 1182, "municipality": "Sellersville", "county": "Bucks County", "households_200k_plus_pct": 6.1, "households_200k_plus_display": "6.1%", "median_household_income": 95022.0, "median_household_income_display": "$95,022", "median_household_income_range_display": "$82,490 to $107,554", "geoid": "4201769248", "state_fips": "42", "county_fips": "017", "county_subdivision_fips": "69248", "census_name": "Sellersville borough"}, "geometry": {"type": "Polygon", "coordinates": [[[-75.322318, 40.363073], [-75.315937, 40.369752], [-75.313105, 40.369928], [-75.309709, 40.370117], [-75.303829, 40.365089], [-75.302908, 40.365801], [-75.294565, 40.355643], [-75.296652, 40.35348], [-75.299872, 40.352706], [-75.29739, 40.351175], [-75.299743, 40.349914], [-75.30081, 40.350748], [-75.303395, 40.349474], [-75.306243, 40.349741], [-75.309046, 40.351586], [-75.315051, 40.357149], [-75.317742, 40.35876], [-75.321238, 40.360923], [-75.322318, 40.363073]]]}}, {"type": "Feature", "properties": {"statewide_rank": 272, "municipality": "Trumbauersville", "county": "Bucks County", "households_200k_plus_pct": 17.6, "households_200k_plus_display": "17.6%", "median_household_income": 112500.0, "median_household_income_display": "$112,500", "median_household_income_range_display": "$68,398 to $156,602", "geoid": "4201777704", "state_fips": "42", "county_fips": "017", "county_subdivision_fips": "77704", "census_name": "Trumbauersville borough"}, "geometry": {"type": "Polygon", "coordinates": [[[-75.392378, 40.416049], [-75.388742, 40.416191], [-75.370496, 40.415881], [-75.369452, 40.417673], [-75.368477, 40.417587], [-75.367902, 40.415002], [-75.370788, 40.414281], [-75.376517, 40.407926], [-75.380579, 40.408005], [-75.380559, 40.409093], [-75.38813, 40.412211], [-75.392097, 40.413636], [-75.392243, 40.414895], [-75.392378, 40.416049]]]}}, {"type": "Feature", "properties": {"statewide_rank": 218, "municipality": "Bridgeton", "county": "Bucks County", "households_200k_plus_pct": 19.6, "households_200k_plus_display": "19.6%", "median_household_income": 82292.0, "median_household_income_display": "$82,292", "median_household_income_range_display": "$59,589 to $104,995", "geoid": "4201708592", "state_fips": "42", "county_fips": "017", "county_subdivision_fips": "08592", "census_name": "Bridgeton township"}, "geometry": {"type": "Polygon", "coordinates": [[[-75.1505690556882, 40.5708790713086], [-75.147368, 40.573152], [-75.141906, 40.575273], [-75.136748, 40.575731], [-75.117292, 40.573211], [-75.110903, 40.570671], [-75.1038892613441, 40.5687746781475], [-75.100325, 40.567811], [-75.0957, 40.564401], [-75.0872247292491, 40.5564639042599], [-75.0839306812449, 40.5533790264842], [-75.11005, 40.529917], [-75.113143, 40.532236], [-75.117374, 40.532704], [-75.121226, 40.534685], [-75.127259, 40.534415], [-75.129226, 40.535648], [-75.129814, 40.536832], [-75.132621, 40.537668], [-75.13498, 40.5393], [-75.137022, 40.543068], [-75.137594, 40.546158], [-75.138719, 40.553639], [-75.144637, 40.553924], [-75.149203, 40.563404], [-75.150314, 40.565013], [-75.149275, 40.568884], [-75.1505690556882, 40.5708790713086]]]}}, {"type": "Feature", "properties": {"statewide_rank": 1289, "municipality": "Dublin", "county": "Bucks County", "households_200k_plus_pct": 5.5, "households_200k_plus_display": "5.5%", "median_household_income": 87813.0, "median_household_income_display": "$87,813", "median_household_income_range_display": "$59,488 to $116,138", "geoid": "4201720104", "state_fips": "42", "county_fips": "017", "county_subdivision_fips": "20104", "census_name": "Dublin borough"}, "geometry": {"type": "Polygon", "coordinates": [[[-75.210644, 40.376442], [-75.204469, 40.382529], [-75.203892, 40.379274], [-75.200441, 40.376243], [-75.193766, 40.372203], [-75.195788, 40.370301], [-75.195217, 40.369934], [-75.197144, 40.368104], [-75.198428, 40.366887], [-75.20047, 40.368162], [-75.204255, 40.366097], [-75.214093, 40.373054], [-75.210644, 40.376442]]]}}, {"type": "Feature", "properties": {"statewide_rank": 689, "municipality": "Riegelsville", "county": "Bucks County", "households_200k_plus_pct": 9.8, "households_200k_plus_display": "9.8%", "median_household_income": 93750.0, "median_household_income_display": "$93,750", "median_household_income_range_display": "$72,865 to $114,635", "geoid": "4201764856", "state_fips": "42", "county_fips": "017", "county_subdivision_fips": "64856", "census_name": "Riegelsville borough"}, "geometry": {"type": "Polygon", "coordinates": [[[-75.209036, 40.603088], [-75.196803, 40.60858], [-75.195923, 40.606788], [-75.1937333278589, 40.6043089438755], [-75.192291, 40.602676], [-75.190369434453, 40.5916420033367], [-75.190146, 40.590359], [-75.190796, 40.586838], [-75.1916649920295, 40.5857353256579], [-75.199451, 40.58644], [-75.199441, 40.588841], [-75.207947, 40.588822], [-75.207039, 40.59153], [-75.20602, 40.591923], [-75.207602, 40.594121], [-75.204492, 40.595454], [-75.207645, 40.601211], [-75.209036, 40.603088]]]}}, {"type": "Feature", "properties": {"statewide_rank": 1643, "municipality": "Telford", "county": "Bucks County", "households_200k_plus_pct": 4.0, "households_200k_plus_display": "4.0%", "median_household_income": 83922.0, "median_household_income_display": "$83,922", "median_household_income_range_display": "$74,680 to $93,164", "geoid": "4201776304", "state_fips": "42", "county_fips": "017", "county_subdivision_fips": "76304", "census_name": "Telford borough"}, "geometry": {"type": "Polygon", "coordinates": [[[-75.333919, 40.330272], [-75.332417, 40.331715], [-75.330715, 40.330666], [-75.324777, 40.336586], [-75.320408, 40.334221], [-75.316181, 40.331062], [-75.318274, 40.328018], [-75.322788, 40.324419], [-75.315693, 40.320072], [-75.317177, 40.318489], [-75.329041, 40.325569], [-75.32991, 40.32608], [-75.334614, 40.328809], [-75.333919, 40.330272]]]}}, {"type": "Feature", "properties": {"statewide_rank": 255, "municipality": "Yardley", "county": "Bucks County", "households_200k_plus_pct": 18.2, "households_200k_plus_display": "18.2%", "median_household_income": 112500.0, "median_household_income_display": "$112,500", "median_household_income_range_display": "$92,585 to $132,415", "geoid": "4201786920", "state_fips": "42", "county_fips": "017", "county_subdivision_fips": "86920", "census_name": "Yardley borough"}, "geometry": {"type": "Polygon", "coordinates": [[[-74.851638, 40.247399], [-74.849108, 40.248491], [-74.846169, 40.249738], [-74.8424158100252, 40.2507160984207], [-74.842308, 40.250508], [-74.836307, 40.246208], [-74.8313783821904, 40.2443398948625], [-74.8261781232174, 40.2423688289614], [-74.830123, 40.238207], [-74.826918, 40.236092], [-74.824088, 40.233915], [-74.828045, 40.233426], [-74.833058, 40.232773], [-74.833629, 40.233903], [-74.835213, 40.232523], [-74.842182, 40.231618], [-74.843297, 40.238114], [-74.845374, 40.237866], [-74.84588, 40.236615], [-74.846507, 40.240359], [-74.850321, 40.244417], [-74.851638, 40.247399]]]}}, {"type": "Feature", "properties": {"statewide_rank": 81, "municipality": "Chalfont", "county": "Bucks County", "households_200k_plus_pct": 31.5, "households_200k_plus_display": "31.5%", "median_household_income": 124485.0, "median_household_income_display": "$124,485", "median_household_income_range_display": "$89,373 to $159,597", "geoid": "4201712504", "state_fips": "42", "county_fips": "017", "county_subdivision_fips": "12504", "census_name": "Chalfont borough"}, "geometry": {"type": "Polygon", "coordinates": [[[-75.223271, 40.295232], [-75.219035, 40.296359], [-75.220322, 40.297346], [-75.218695, 40.299094], [-75.220469, 40.301783], [-75.218101, 40.302961], [-75.21608, 40.301703], [-75.217112, 40.300537], [-75.211417, 40.302415], [-75.207838, 40.30034], [-75.208704, 40.296932], [-75.204162, 40.294158], [-75.200846, 40.292269], [-75.198381, 40.290888], [-75.193828, 40.288141], [-75.191497, 40.286732], [-75.190883, 40.285443], [-75.192781, 40.283997], [-75.190098, 40.281124], [-75.193643, 40.279832], [-75.193415, 40.279297], [-75.194717, 40.278753], [-75.199769, 40.282327], [-75.198359, 40.283799], [-75.198704, 40.2853], [-75.20532, 40.282405], [-75.206578, 40.281289], [-75.211121, 40.277521], [-75.214246, 40.279545], [-75.213642, 40.280094], [-75.216434, 40.281728], [-75.217237, 40.280948], [-75.219965, 40.282593], [-75.221916, 40.2807], [-75.223436, 40.281604], [-75.218303, 40.286486], [-75.21997, 40.288451], [-75.220374, 40.288883], [-75.22062, 40.289032], [-75.225817, 40.292176], [-75.223271, 40.295232]]]}}, {"type": "Feature", "properties": {"statewide_rank": 210, "municipality": "Springfield", "county": "Bucks County", "households_200k_plus_pct": 19.9, "households_200k_plus_display": "19.9%", "median_household_income": 122538.0, "median_household_income_display": "$122,538", "median_household_income_range_display": "$72,409 to $172,667", "geoid": "4201773016", "state_fips": "42", "county_fips": "017", "county_subdivision_fips": "73016", "census_name": "Springfield township"}, "geometry": {"type": "Polygon", "coordinates": [[[-75.408763, 40.488601], [-75.388292, 40.501697], [-75.386717, 40.502669], [-75.386088, 40.503036], [-75.382017, 40.505631], [-75.380396, 40.506658], [-75.358594, 40.520805], [-75.338633, 40.534068], [-75.333514, 40.537057], [-75.333048, 40.536767], [-75.314247, 40.548832], [-75.308745, 40.552611], [-75.299017, 40.558601], [-75.293528, 40.561978], [-75.258151, 40.582009], [-75.25654, 40.582731], [-75.247377, 40.569572], [-75.228019, 40.541736], [-75.215606, 40.532706], [-75.231134, 40.517162], [-75.23361, 40.516272], [-75.283559, 40.498575], [-75.296796, 40.493886], [-75.300375, 40.493455], [-75.340284, 40.489368], [-75.381117, 40.486427], [-75.380812, 40.48154], [-75.394484, 40.479889], [-75.408763, 40.488601]]]}}, {"type": "Feature", "properties": {"statewide_rank": 829, "municipality": "Penndel", "county": "Bucks County", "households_200k_plus_pct": 8.5, "households_200k_plus_display": "8.5%", "median_household_income": 75517.0, "median_household_income_display": "$75,517", "median_household_income_range_display": "$50,288 to $100,746", "geoid": "4201758936", "state_fips": "42", "county_fips": "017", "county_subdivision_fips": "58936", "census_name": "Penndel borough"}, "geometry": {"type": "Polygon", "coordinates": [[[-74.923864, 40.155851], [-74.919752, 40.157258], [-74.919621, 40.158567], [-74.912218, 40.160293], [-74.912269, 40.160448], [-74.909399, 40.161274], [-74.907308, 40.159268], [-74.9107, 40.156916], [-74.911868, 40.156132], [-74.910232, 40.154429], [-74.908986, 40.155415], [-74.906791, 40.153462], [-74.91293, 40.149385], [-74.915061, 40.151245], [-74.917716, 40.149488], [-74.921665, 40.15389], [-74.923864, 40.155851]]]}}, {"type": "Feature", "properties": {"statewide_rank": 182, "municipality": "Upper Southampton", "county": "Bucks County", "households_200k_plus_pct": 21.6, "households_200k_plus_display": "21.6%", "median_household_income": 105444.0, "median_household_income_display": "$105,444", "median_household_income_range_display": "$94,384 to $116,504", "geoid": "4201779296", "state_fips": "42", "county_fips": "017", "county_subdivision_fips": "79296", "census_name": "Upper Southampton township"}, "geometry": {"type": "Polygon", "coordinates": [[[-75.071198, 40.171032], [-75.058763, 40.18331], [-75.049312, 40.192702], [-75.043802, 40.198087], [-75.03242, 40.19138], [-75.018797, 40.18328], [-75.013435, 40.180129], [-75.011013, 40.178731], [-74.999685, 40.172025], [-74.998796, 40.171456], [-75.007648, 40.167136], [-75.008999, 40.166612], [-75.016584, 40.159088], [-75.017805, 40.157909], [-75.021417, 40.154091], [-75.029301, 40.146509], [-75.033508, 40.148975], [-75.051845, 40.159836], [-75.053104, 40.160594], [-75.060135, 40.164757], [-75.064438, 40.167194], [-75.071198, 40.171032]]]}}, {"type": "Feature", "properties": {"statewide_rank": 245, "municipality": "Perkasie", "county": "Bucks County", "households_200k_plus_pct": 18.6, "households_200k_plus_display": "18.6%", "median_household_income": 93845.0, "median_household_income_display": "$93,845", "median_household_income_range_display": "$82,877 to $104,813", "geoid": "4201759384", "state_fips": "42", "county_fips": "017", "county_subdivision_fips": "59384", "census_name": "Perkasie borough"}, "geometry": {"type": "Polygon", "coordinates": [[[-75.311387, 40.375323], [-75.30729, 40.377788], [-75.28253, 40.388603], [-75.274674, 40.383744], [-75.282076, 40.379697], [-75.282964, 40.379113], [-75.278877, 40.376397], [-75.28273, 40.372806], [-75.275327, 40.368202], [-75.274714, 40.367817], [-75.281645, 40.362345], [-75.282089, 40.361679], [-75.283667, 40.359307], [-75.28451, 40.359909], [-75.292787, 40.354621], [-75.294926, 40.352478], [-75.296652, 40.35348], [-75.294565, 40.355643], [-75.302908, 40.365801], [-75.303829, 40.365089], [-75.309709, 40.370117], [-75.311732, 40.371708], [-75.311387, 40.375323]]]}}, {"type": "Feature", "properties": {"statewide_rank": 591, "municipality": "Tullytown", "county": "Bucks County", "households_200k_plus_pct": 11.0, "households_200k_plus_display": "11.0%", "median_household_income": 65185.0, "median_household_income_display": "$65,185", "median_household_income_range_display": "$56,381 to $73,989", "geoid": "4201777744", "state_fips": "42", "county_fips": "017", "county_subdivision_fips": "77744", "census_name": "Tullytown borough"}, "geometry": {"type": "Polygon", "coordinates": [[[-74.828752, 40.145375], [-74.823159, 40.14795], [-74.82245, 40.147063], [-74.816498, 40.14979], [-74.818291, 40.151884], [-74.819852, 40.151337], [-74.820762, 40.153212], [-74.819081, 40.153676], [-74.820561, 40.155404], [-74.815374, 40.155673], [-74.813028, 40.156359], [-74.814213, 40.149133], [-74.810723, 40.148725], [-74.809294, 40.151948], [-74.805792, 40.151135], [-74.80647, 40.149625], [-74.80239, 40.150451], [-74.802216, 40.145188], [-74.796128, 40.146941], [-74.794807, 40.133812], [-74.796709, 40.13321], [-74.800724, 40.132925], [-74.804749, 40.131816], [-74.804815, 40.125808], [-74.8053365419257, 40.1243994362209], [-74.8104243279647, 40.1261092659553], [-74.812807, 40.12691], [-74.8156460275272, 40.1276210418973], [-74.82274, 40.136936], [-74.826445, 40.142229], [-74.828752, 40.145375]]]}}, {"type": "Feature", "properties": {"statewide_rank": 110, "municipality": "Langhorne", "county": "Bucks County", "households_200k_plus_pct": 27.4, "households_200k_plus_display": "27.4%", "median_household_income": 101131.0, "median_household_income_display": "$101,131", "median_household_income_range_display": "$92,615 to $109,647", "geoid": "4201741392", "state_fips": "42", "county_fips": "017", "county_subdivision_fips": "41392", "census_name": "Langhorne borough"}, "geometry": {"type": "Polygon", "coordinates": [[[-74.928814, 40.183819], [-74.924123, 40.185542], [-74.922894, 40.184454], [-74.922296, 40.184255], [-74.919189, 40.183227], [-74.914807, 40.177226], [-74.912901, 40.172719], [-74.918695, 40.17123], [-74.920828, 40.170679], [-74.92195, 40.173663], [-74.925711, 40.172809], [-74.926257, 40.172641], [-74.928215, 40.179041], [-74.924961, 40.179419], [-74.925415, 40.180833], [-74.928814, 40.183819]]]}}, {"type": "Feature", "properties": {"statewide_rank": 118, "municipality": "Langhorne Manor", "county": "Bucks County", "households_200k_plus_pct": 26.7, "households_200k_plus_display": "26.7%", "median_household_income": 137917.0, "median_household_income_display": "$137,917", "median_household_income_range_display": "$115,544 to $160,290", "geoid": "4201741416", "state_fips": "42", "county_fips": "017", "county_subdivision_fips": "41416", "census_name": "Langhorne Manor borough"}, "geometry": {"type": "Polygon", "coordinates": [[[-74.925711, 40.172809], [-74.92195, 40.173663], [-74.920828, 40.170679], [-74.918695, 40.17123], [-74.917056, 40.167727], [-74.908667, 40.169926], [-74.906404, 40.163694], [-74.909391, 40.162202], [-74.910265, 40.163025], [-74.912771, 40.161989], [-74.912471, 40.161065], [-74.919684, 40.158773], [-74.920623, 40.158558], [-74.923788, 40.162474], [-74.92532, 40.165877], [-74.925864, 40.167091], [-74.925623, 40.168989], [-74.925034, 40.169128], [-74.926257, 40.172641], [-74.925711, 40.172809]]]}}, {"type": "Feature", "properties": {"statewide_rank": 24, "municipality": "New Hope", "county": "Bucks County", "households_200k_plus_pct": 44.7, "households_200k_plus_display": "44.7%", "median_household_income": 175156.0, "median_household_income_display": "$175,156", "median_household_income_range_display": "$131,344 to $218,968", "geoid": "4201753712", "state_fips": "42", "county_fips": "017", "county_subdivision_fips": "53712", "census_name": "New Hope borough"}, "geometry": {"type": "Polygon", "coordinates": [[[-74.968519, 40.365828], [-74.964906, 40.366467], [-74.966334, 40.372082], [-74.95547, 40.373196], [-74.9528267618004, 40.373550317657], [-74.9487886081638, 40.3649105110839], [-74.948722, 40.364768], [-74.946024, 40.355892], [-74.9459690110937, 40.3553891100019], [-74.9453517872144, 40.3497444129868], [-74.948358, 40.3499], [-74.948906, 40.350342], [-74.949303, 40.353294], [-74.966424, 40.351409], [-74.967617, 40.359], [-74.968058, 40.362177], [-74.968519, 40.365828]]]}}, {"type": "Feature", "properties": {"statewide_rank": 417, "municipality": "Bensalem", "county": "Bucks County", "households_200k_plus_pct": 13.6, "households_200k_plus_display": "13.6%", "median_household_income": 85223.0, "median_household_income_display": "$85,223", "median_household_income_range_display": "$80,098 to $90,348", "geoid": "4201705616", "state_fips": "42", "county_fips": "017", "county_subdivision_fips": "05616", "census_name": "Bensalem township"}, "geometry": {"type": "Polygon", "coordinates": [[[-74.994407, 40.127278], [-74.992751, 40.130606], [-74.993894, 40.131883], [-74.990067, 40.135732], [-74.987432, 40.138399], [-74.986243, 40.139587], [-74.979437, 40.146936], [-74.976435, 40.150051], [-74.970904, 40.155786], [-74.957672, 40.148104], [-74.95749, 40.148001], [-74.957885, 40.146096], [-74.953788, 40.145856], [-74.951725, 40.145736], [-74.949197, 40.146183], [-74.943384, 40.148072], [-74.937126, 40.151735], [-74.93428, 40.153338], [-74.931345, 40.153516], [-74.928175, 40.152884], [-74.924361, 40.150989], [-74.918076, 40.145724], [-74.917855, 40.145433], [-74.913987, 40.142223], [-74.912299, 40.14176], [-74.909618, 40.141642], [-74.905182, 40.138902], [-74.902897, 40.135792], [-74.898945, 40.133049], [-74.898451, 40.132235], [-74.89823, 40.131158], [-74.900133, 40.128933], [-74.902824, 40.11958], [-74.905363, 40.116981], [-74.904388, 40.113906], [-74.904401, 40.111187], [-74.902438, 40.105774], [-74.902554, 40.104119], [-74.90591, 40.099907], [-74.908806, 40.099038], [-74.910211, 40.098855], [-74.911705, 40.098169], [-74.912721, 40.097023], [-74.913491, 40.093592], [-74.913828, 40.092551], [-74.914797, 40.08828], [-74.914689, 40.087734], [-74.913444, 40.085804], [-74.911157, 40.084775], [-74.90967, 40.082679], [-74.908831, 40.076999], [-74.9091128530576, 40.0702134420743], [-74.91342, 40.070359], [-74.920874, 40.071404], [-74.925133, 40.071056], [-74.93258, 40.06881], [-74.966891, 40.052716], [-74.9739353371246, 40.048038036367], [-74.974784, 40.049316], [-74.979695, 40.053399], [-74.982022, 40.053727], [-74.983194, 40.054223], [-74.983904, 40.054994], [-74.984302, 40.05585], [-74.985163, 40.056932], [-74.980437, 40.060304], [-74.981023, 40.064939], [-74.980878, 40.066028], [-74.977124, 40.06825], [-74.9748, 40.070821], [-74.971063, 40.073966], [-74.971466, 40.074355], [-74.971086, 40.076007], [-74.967063, 40.076378], [-74.964842, 40.077148], [-74.963604, 40.077105], [-74.962014, 40.079584], [-74.959085, 40.082349], [-74.958421, 40.08392], [-74.958629, 40.084294], [-74.9576, 40.087094], [-74.957747, 40.089844], [-74.956447, 40.092757], [-74.955777, 40.095103], [-74.958623, 40.096872], [-74.958749, 40.096929], [-74.95994, 40.09737], [-74.961766, 40.097752], [-74.961088, 40.102777], [-74.961156, 40.103446], [-74.963926, 40.105589], [-74.963682, 40.107047], [-74.965431, 40.107886], [-74.96377, 40.109753], [-74.964137, 40.113462], [-74.963174, 40.116675], [-74.96426, 40.117558], [-74.964991, 40.118635], [-74.967122, 40.117943], [-74.969202, 40.116817], [-74.970178, 40.117004], [-74.972961, 40.119803], [-74.975724, 40.120252], [-74.979132, 40.119343], [-74.980058, 40.119883], [-74.982371, 40.119942], [-74.983432, 40.12362], [-74.986907, 40.123375], [-74.989156, 40.126162], [-74.994167, 40.126094], [-74.994407, 40.127278]]]}}, {"type": "Feature", "properties": {"statewide_rank": 323, "municipality": "New Britain", "county": "Bucks County", "households_200k_plus_pct": 15.9, "households_200k_plus_display": "15.9%", "median_household_income": 125227.0, "median_household_income_display": "$125,227", "median_household_income_range_display": "$109,595 to $140,859", "geoid": "4201753296", "state_fips": "42", "county_fips": "017", "county_subdivision_fips": "53296", "census_name": "New Britain borough"}, "geometry": {"type": "Polygon", "coordinates": [[[-75.200846, 40.292269], [-75.196137, 40.297024], [-75.187271, 40.305244], [-75.183317, 40.307039], [-75.181903, 40.306017], [-75.185252, 40.305149], [-75.186651, 40.304258], [-75.185471, 40.30235], [-75.184051, 40.302794], [-75.182078, 40.301531], [-75.179639, 40.303697], [-75.177146, 40.30212], [-75.175657, 40.303477], [-75.174811, 40.302916], [-75.172766, 40.304594], [-75.169103, 40.305496], [-75.168653, 40.304751], [-75.165151, 40.301741], [-75.156613, 40.305237], [-75.155105, 40.303025], [-75.155266, 40.29997], [-75.155493, 40.299882], [-75.157722, 40.299349], [-75.157218, 40.298169], [-75.159364, 40.296285], [-75.165623, 40.300161], [-75.166918, 40.299152], [-75.170427, 40.299321], [-75.180239, 40.297409], [-75.177815, 40.295868], [-75.181483, 40.292357], [-75.191057, 40.290136], [-75.193828, 40.288141], [-75.198381, 40.290888], [-75.200846, 40.292269]]]}}, {"type": "Feature", "properties": {"statewide_rank": 123, "municipality": "Milford", "county": "Bucks County", "households_200k_plus_pct": 26.5, "households_200k_plus_display": "26.5%", "median_household_income": 125093.0, "median_household_income_display": "$125,093", "median_household_income_range_display": "$101,194 to $148,992", "geoid": "4201749384", "state_fips": "42", "county_fips": "017", "county_subdivision_fips": "49384", "census_name": "Milford township"}, "geometry": {"type": "Polygon", "coordinates": [[[-75.483858, 40.418634], [-75.458058, 40.442642], [-75.442264, 40.457626], [-75.409733, 40.487984], [-75.408763, 40.488601], [-75.394484, 40.479889], [-75.380812, 40.48154], [-75.380462, 40.475185], [-75.380014, 40.467279], [-75.379336, 40.454941], [-75.373646, 40.455423], [-75.371574, 40.443535], [-75.370328, 40.435946], [-75.369262, 40.437285], [-75.366413, 40.437561], [-75.366178, 40.436252], [-75.367553, 40.435011], [-75.368825, 40.431917], [-75.368003, 40.42204], [-75.367263, 40.421232], [-75.36785, 40.414141], [-75.366194, 40.413897], [-75.365089, 40.406069], [-75.371017, 40.405784], [-75.370314, 40.397272], [-75.3796, 40.396539], [-75.381885, 40.39415], [-75.38345, 40.395025], [-75.383927, 40.392629], [-75.384885, 40.391167], [-75.39063, 40.38437], [-75.390712, 40.382403], [-75.391768, 40.382549], [-75.392304, 40.38054], [-75.393895, 40.380708], [-75.394029, 40.378294], [-75.401972, 40.379862], [-75.404103, 40.374776], [-75.410402, 40.3745], [-75.411469, 40.375053], [-75.422234, 40.381691], [-75.425667, 40.38443], [-75.445647, 40.396205], [-75.45202, 40.399314], [-75.47136, 40.411118], [-75.476483, 40.4142], [-75.483858, 40.418634]], [[-75.392243, 40.414895], [-75.392097, 40.413636], [-75.38813, 40.412211], [-75.380559, 40.409093], [-75.380579, 40.408005], [-75.376517, 40.407926], [-75.370788, 40.414281], [-75.367902, 40.415002], [-75.368477, 40.417587], [-75.369452, 40.417673], [-75.370496, 40.415881], [-75.388742, 40.416191], [-75.392378, 40.416049], [-75.392243, 40.414895]]]}}, {"type": "Feature", "properties": {"statewide_rank": 71, "municipality": "Plumstead", "county": "Bucks County", "households_200k_plus_pct": 34.4, "households_200k_plus_display": "34.4%", "median_household_income": 138259.0, "median_household_income_display": "$138,259", "median_household_income_range_display": "$128,084 to $148,434", "geoid": "4201761616", "state_fips": "42", "county_fips": "017", "county_subdivision_fips": "61616", "census_name": "Plumstead township"}, "geometry": {"type": "Polygon", "coordinates": [[[-75.188177, 40.364272], [-75.167805, 40.38439], [-75.162357, 40.389721], [-75.161937, 40.390036], [-75.160064, 40.388972], [-75.156981, 40.392331], [-75.154902, 40.393201], [-75.149313, 40.398282], [-75.150006, 40.400047], [-75.145243, 40.403397], [-75.140464, 40.408053], [-75.135892, 40.412315], [-75.134624, 40.412658], [-75.135164, 40.414651], [-75.116552, 40.433727], [-75.109545, 40.432104], [-75.108366, 40.43267], [-75.107494, 40.434492], [-75.106292, 40.435221], [-75.101329, 40.436487], [-75.099218, 40.436322], [-75.096076, 40.434411], [-75.094983, 40.434679], [-75.094718, 40.436777], [-75.099332, 40.439681], [-75.097638, 40.440928], [-75.095833, 40.440662], [-75.091807, 40.437361], [-75.090572, 40.43756], [-75.088208, 40.440367], [-75.086337, 40.441538], [-75.084121, 40.442019], [-75.083049, 40.441708], [-75.081602, 40.439734], [-75.080016, 40.435461], [-75.075828, 40.434293], [-75.073937, 40.429835], [-75.071989, 40.427314], [-75.066562, 40.423128], [-75.062788, 40.421553], [-75.0606621747204, 40.4213505727709], [-75.058848, 40.418065], [-75.055711, 40.416399], [-75.04616, 40.41397], [-75.0443537657268, 40.4125859415589], [-75.043071, 40.411603], [-75.041160188393, 40.4105525207764], [-75.057855, 40.397526], [-75.056513, 40.395083], [-75.063922, 40.387628], [-75.064275, 40.38799], [-75.067558, 40.389993], [-75.08057, 40.3783], [-75.083984, 40.380342], [-75.09907, 40.36645], [-75.097341, 40.365593], [-75.113485, 40.349589], [-75.113486, 40.349282], [-75.112712, 40.34884], [-75.122531, 40.339166], [-75.131929, 40.329665], [-75.136101, 40.332164], [-75.151084, 40.341221], [-75.181369, 40.359386], [-75.186534, 40.362519], [-75.188832, 40.363347], [-75.188177, 40.364272]]]}}, {"type": "Feature", "properties": {"statewide_rank": 1002, "municipality": "Richlandtown", "county": "Bucks County", "households_200k_plus_pct": 7.2, "households_200k_plus_display": "7.2%", "median_household_income": 74439.0, "median_household_income_display": "$74,439", "median_household_income_range_display": "$56,627 to $92,251", "geoid": "4201764584", "state_fips": "42", "county_fips": "017", "county_subdivision_fips": "64584", "census_name": "Richlandtown borough"}, "geometry": {"type": "Polygon", "coordinates": [[[-75.324182, 40.478709], [-75.319466, 40.479371], [-75.318936, 40.479072], [-75.318089, 40.471994], [-75.317844, 40.46924], [-75.318145, 40.468649], [-75.320416, 40.465547], [-75.322747, 40.465957], [-75.323957, 40.46617], [-75.323803, 40.472232], [-75.324182, 40.478709]]]}}, {"type": "Feature", "properties": {"statewide_rank": 213, "municipality": "Middletown", "county": "Bucks County", "households_200k_plus_pct": 19.8, "households_200k_plus_display": "19.8%", "median_household_income": 114449.0, "median_household_income_display": "$114,449", "median_household_income_range_display": "$109,311 to $119,587", "geoid": "4201749120", "state_fips": "42", "county_fips": "017", "county_subdivision_fips": "49120", "census_name": "Middletown township"}, "geometry": {"type": "Polygon", "coordinates": [[[-74.957414, 40.174173], [-74.956628, 40.178332], [-74.957133, 40.179237], [-74.955372, 40.179991], [-74.953636, 40.17961], [-74.951757, 40.178123], [-74.950407, 40.177897], [-74.938012, 40.18136], [-74.934311, 40.181943], [-74.930668, 40.183518], [-74.928814, 40.183819], [-74.925415, 40.180833], [-74.924961, 40.179419], [-74.928215, 40.179041], [-74.926257, 40.172641], [-74.925034, 40.169128], [-74.925623, 40.168989], [-74.925864, 40.167091], [-74.92532, 40.165877], [-74.923788, 40.162474], [-74.920623, 40.158558], [-74.919684, 40.158773], [-74.912471, 40.161065], [-74.912771, 40.161989], [-74.910265, 40.163025], [-74.909391, 40.162202], [-74.906404, 40.163694], [-74.908667, 40.169926], [-74.917056, 40.167727], [-74.918695, 40.17123], [-74.912901, 40.172719], [-74.914807, 40.177226], [-74.919189, 40.183227], [-74.922296, 40.184255], [-74.922894, 40.184454], [-74.924123, 40.185542], [-74.922619, 40.18617], [-74.922647, 40.187094], [-74.925728, 40.189371], [-74.927868, 40.189457], [-74.933952, 40.189015], [-74.940116, 40.192713], [-74.942021, 40.194226], [-74.942539, 40.195466], [-74.941739, 40.197578], [-74.941396, 40.201756], [-74.940397, 40.207353], [-74.940631, 40.20902], [-74.94441, 40.211453], [-74.94331, 40.214175], [-74.931879, 40.217029], [-74.918023, 40.220661], [-74.910629, 40.222041], [-74.909857, 40.22202], [-74.902454, 40.22134], [-74.887551, 40.224735], [-74.883827, 40.216266], [-74.877508, 40.201828], [-74.876712, 40.200011], [-74.874369, 40.200536], [-74.87115, 40.193208], [-74.871055, 40.192989], [-74.86941, 40.192728], [-74.869369, 40.189077], [-74.869379, 40.183895], [-74.870121, 40.183802], [-74.869811, 40.180573], [-74.870066, 40.179508], [-74.871235, 40.175121], [-74.870788, 40.171931], [-74.870226, 40.170214], [-74.868766, 40.165811], [-74.870101, 40.164478], [-74.864538, 40.160055], [-74.861671, 40.159256], [-74.862069, 40.156796], [-74.855432, 40.154236], [-74.855542, 40.154153], [-74.867669, 40.145888], [-74.872616, 40.142516], [-74.8728, 40.142391], [-74.874726, 40.141083], [-74.884714, 40.134247], [-74.888232, 40.132145], [-74.891155, 40.132153], [-74.892137, 40.132126], [-74.898451, 40.132235], [-74.898945, 40.133049], [-74.898158, 40.133431], [-74.900376, 40.140641], [-74.907561, 40.146631], [-74.90919, 40.145481], [-74.913105, 40.148959], [-74.918076, 40.145724], [-74.924361, 40.150989], [-74.928175, 40.152884], [-74.931345, 40.153516], [-74.93428, 40.153338], [-74.937126, 40.151735], [-74.943384, 40.148072], [-74.949197, 40.146183], [-74.951725, 40.145736], [-74.953788, 40.145856], [-74.957885, 40.146096], [-74.95749, 40.148001], [-74.957443, 40.148169], [-74.956238, 40.151771], [-74.957232, 40.157988], [-74.956762, 40.158889], [-74.95218, 40.161725], [-74.949419, 40.163842], [-74.948683, 40.165981], [-74.951005, 40.168346], [-74.957215, 40.172687], [-74.957917, 40.17373], [-74.957414, 40.174173]], [[-74.921665, 40.15389], [-74.917716, 40.149488], [-74.915061, 40.151245], [-74.91293, 40.149385], [-74.906791, 40.153462], [-74.908986, 40.155415], [-74.910232, 40.154429], [-74.911868, 40.156132], [-74.9107, 40.156916], [-74.907308, 40.159268], [-74.909399, 40.161274], [-74.912269, 40.160448], [-74.912218, 40.160293], [-74.919621, 40.158567], [-74.919752, 40.157258], [-74.923864, 40.155851], [-74.921665, 40.15389]]]}}, {"type": "Feature", "properties": {"statewide_rank": 937, "municipality": "Quakertown", "county": "Bucks County", "households_200k_plus_pct": 7.6, "households_200k_plus_display": "7.6%", "median_household_income": 85959.0, "median_household_income_display": "$85,959", "median_household_income_range_display": "$74,637 to $97,281", "geoid": "4201763048", "state_fips": "42", "county_fips": "017", "county_subdivision_fips": "63048", "census_name": "Quakertown borough"}, "geometry": {"type": "Polygon", "coordinates": [[[-75.369891, 40.441127], [-75.36701, 40.4436], [-75.361176, 40.444003], [-75.360128, 40.443236], [-75.359599, 40.445519], [-75.361916, 40.449379], [-75.359398, 40.449515], [-75.359031, 40.447294], [-75.355936, 40.447228], [-75.355751, 40.445959], [-75.352711, 40.4462], [-75.352582, 40.445374], [-75.34542, 40.446233], [-75.346188, 40.448456], [-75.342428, 40.448872], [-75.341986, 40.446622], [-75.339423, 40.446942], [-75.33539, 40.447445], [-75.334153, 40.448567], [-75.334827, 40.450148], [-75.333576, 40.451618], [-75.33247, 40.449663], [-75.329074, 40.449891], [-75.328718, 40.446908], [-75.327933, 40.445544], [-75.32838, 40.443653], [-75.32811, 40.44368], [-75.326119, 40.440195], [-75.325444, 40.439967], [-75.323692, 40.438816], [-75.320478, 40.438963], [-75.319025, 40.438519], [-75.319169, 40.436463], [-75.321078, 40.43737], [-75.33085, 40.436518], [-75.336455, 40.435503], [-75.336565, 40.434076], [-75.340665, 40.433356], [-75.340985, 40.43153], [-75.344335, 40.430367], [-75.343221, 40.429228], [-75.345707, 40.42721], [-75.348676, 40.426682], [-75.348899, 40.427128], [-75.350807, 40.42617], [-75.351376, 40.429034], [-75.351094, 40.430499], [-75.353656, 40.431228], [-75.353327, 40.433574], [-75.354781, 40.434051], [-75.354264, 40.435051], [-75.35727, 40.434828], [-75.358143, 40.43731], [-75.362962, 40.436912], [-75.366178, 40.436252], [-75.366413, 40.437561], [-75.369262, 40.437285], [-75.369891, 40.441127]], [[-75.360906, 40.440771], [-75.359087, 40.44071], [-75.359083, 40.44078], [-75.359071, 40.441227], [-75.360946, 40.441295], [-75.360906, 40.440771]]]}}, {"type": "Feature", "properties": {"statewide_rank": 39, "municipality": "Newtown", "county": "Bucks County", "households_200k_plus_pct": 40.9, "households_200k_plus_display": "40.9%", "median_household_income": 166429.0, "median_household_income_display": "$166,429", "median_household_income_range_display": "$141,765 to $191,093", "geoid": "4201754184", "state_fips": "42", "county_fips": "017", "county_subdivision_fips": "54184", "census_name": "Newtown borough"}, "geometry": {"type": "Polygon", "coordinates": [[[-74.938661, 40.224167], [-74.938178, 40.227936], [-74.937761, 40.229349], [-74.937323, 40.232686], [-74.937174, 40.233826], [-74.934883, 40.237793], [-74.929945, 40.237622], [-74.930524, 40.235597], [-74.933308, 40.235706], [-74.933591, 40.233599], [-74.929093, 40.232844], [-74.928897, 40.235533], [-74.927031, 40.235458], [-74.927121, 40.232554], [-74.925008, 40.23232], [-74.925269, 40.228771], [-74.925489, 40.226049], [-74.925633, 40.225186], [-74.931405, 40.2242], [-74.931782, 40.221306], [-74.933799, 40.220823], [-74.93819, 40.222013], [-74.938661, 40.224167]], [[-74.926803, 40.228828], [-74.925936, 40.228795], [-74.925909, 40.229442], [-74.926773, 40.22947], [-74.926803, 40.228828]]]}}, {"type": "Feature", "properties": {"statewide_rank": 78, "municipality": "Bedminster", "county": "Bucks County", "households_200k_plus_pct": 32.2, "households_200k_plus_display": "32.2%", "median_household_income": 152049.0, "median_household_income_display": "$152,049", "median_household_income_range_display": "$119,602 to $184,496", "geoid": "4201704976", "state_fips": "42", "county_fips": "017", "county_subdivision_fips": "04976", "census_name": "Bedminster township"}, "geometry": {"type": "Polygon", "coordinates": [[[-75.255617, 40.429118], [-75.253787, 40.430415], [-75.255102, 40.432656], [-75.254045, 40.434989], [-75.24921, 40.436559], [-75.247375, 40.438479], [-75.240803, 40.441711], [-75.240463, 40.444459], [-75.238171, 40.447467], [-75.239183, 40.447977], [-75.238079, 40.449831], [-75.233412, 40.450975], [-75.232851, 40.451903], [-75.234207, 40.454546], [-75.232941, 40.456332], [-75.230316, 40.45862], [-75.230576, 40.459895], [-75.229141, 40.462801], [-75.226578, 40.464358], [-75.21875, 40.464564], [-75.218399, 40.467936], [-75.216248, 40.469836], [-75.212387, 40.470301], [-75.207275, 40.468745], [-75.201507, 40.469096], [-75.199965, 40.471621], [-75.195464, 40.471331], [-75.194259, 40.47188], [-75.193999, 40.475253], [-75.19197, 40.475153], [-75.189452, 40.474024], [-75.188491, 40.471857], [-75.187507, 40.470104], [-75.182196, 40.469075], [-75.178035, 40.46659], [-75.176088, 40.466188], [-75.175553, 40.464477], [-75.173554, 40.46311], [-75.168235, 40.462371], [-75.164399, 40.461386], [-75.161745, 40.461479], [-75.16121, 40.459723], [-75.157013, 40.455585], [-75.156357, 40.452253], [-75.159125, 40.450852], [-75.163538, 40.447017], [-75.163957, 40.445532], [-75.162527, 40.44328], [-75.161498, 40.442755], [-75.159222, 40.442023], [-75.154445, 40.441444], [-75.145669, 40.445465], [-75.143012, 40.443756], [-75.141236, 40.43993], [-75.141234, 40.437512], [-75.139276, 40.43541], [-75.137749, 40.434704], [-75.13382, 40.435311], [-75.129739, 40.436873], [-75.124166, 40.438263], [-75.120101, 40.434571], [-75.116552, 40.433727], [-75.135164, 40.414651], [-75.134624, 40.412658], [-75.135892, 40.412315], [-75.140464, 40.408053], [-75.145243, 40.403397], [-75.150006, 40.400047], [-75.149313, 40.398282], [-75.154902, 40.393201], [-75.156981, 40.392331], [-75.160064, 40.388972], [-75.161937, 40.390036], [-75.162357, 40.389721], [-75.167805, 40.38439], [-75.188177, 40.364272], [-75.188832, 40.363347], [-75.190152, 40.363837], [-75.197144, 40.368104], [-75.195217, 40.369934], [-75.195788, 40.370301], [-75.193766, 40.372203], [-75.200441, 40.376243], [-75.203892, 40.379274], [-75.204469, 40.382529], [-75.210644, 40.376442], [-75.212948, 40.377985], [-75.219623, 40.382288], [-75.244701, 40.397905], [-75.247142, 40.401542], [-75.247969, 40.404002], [-75.250111, 40.406982], [-75.251661, 40.411739], [-75.252516, 40.416293], [-75.253662, 40.419353], [-75.255498, 40.428101], [-75.255617, 40.429118]]]}}, {"type": "Feature", "properties": {"statewide_rank": 82, "municipality": "New Britain", "county": "Bucks County", "households_200k_plus_pct": 31.3, "households_200k_plus_display": "31.3%", "median_household_income": 144193.0, "median_household_income_display": "$144,193", "median_household_income_range_display": "$129,727 to $158,659", "geoid": "4201753304", "state_fips": "42", "county_fips": "017", "county_subdivision_fips": "53304", "census_name": "New Britain township"}, "geometry": {"type": "Polygon", "coordinates": [[[-75.263085, 40.287713], [-75.260943, 40.289786], [-75.260646, 40.290079], [-75.250509, 40.300119], [-75.243143, 40.307347], [-75.236395, 40.313666], [-75.232295, 40.311463], [-75.227842, 40.31565], [-75.212694, 40.329858], [-75.203794, 40.338397], [-75.183023, 40.358554], [-75.181369, 40.359386], [-75.151084, 40.341221], [-75.157233, 40.335035], [-75.166038, 40.326364], [-75.168725, 40.323572], [-75.172473, 40.320627], [-75.173511, 40.319079], [-75.177975, 40.316263], [-75.183938, 40.31415], [-75.192855, 40.31007], [-75.187271, 40.305244], [-75.196137, 40.297024], [-75.200846, 40.292269], [-75.204162, 40.294158], [-75.208704, 40.296932], [-75.207838, 40.30034], [-75.211417, 40.302415], [-75.217112, 40.300537], [-75.21608, 40.301703], [-75.218101, 40.302961], [-75.220469, 40.301783], [-75.218695, 40.299094], [-75.220322, 40.297346], [-75.219035, 40.296359], [-75.223271, 40.295232], [-75.225817, 40.292176], [-75.22062, 40.289032], [-75.220374, 40.288883], [-75.21997, 40.288451], [-75.218303, 40.286486], [-75.223436, 40.281604], [-75.221916, 40.2807], [-75.219965, 40.282593], [-75.217237, 40.280948], [-75.216434, 40.281728], [-75.213642, 40.280094], [-75.214246, 40.279545], [-75.211121, 40.277521], [-75.206578, 40.281289], [-75.20532, 40.282405], [-75.198704, 40.2853], [-75.198359, 40.283799], [-75.199769, 40.282327], [-75.194717, 40.278753], [-75.193415, 40.279297], [-75.193643, 40.279832], [-75.190098, 40.281124], [-75.192781, 40.283997], [-75.190883, 40.285443], [-75.191497, 40.286732], [-75.193828, 40.288141], [-75.191057, 40.290136], [-75.181483, 40.292357], [-75.177815, 40.295868], [-75.174285, 40.293652], [-75.185457, 40.283129], [-75.18751, 40.27994], [-75.191689, 40.279132], [-75.194868, 40.276162], [-75.201327, 40.269871], [-75.207611, 40.26371], [-75.214133, 40.257422], [-75.228425, 40.265816], [-75.243171, 40.274395], [-75.244791, 40.275325], [-75.247155, 40.27665], [-75.257269, 40.282535], [-75.26432, 40.286836], [-75.263085, 40.287713]]]}}, {"type": "Feature", "properties": {"statewide_rank": 875, "municipality": "Bristol", "county": "Bucks County", "households_200k_plus_pct": 8.1, "households_200k_plus_display": "8.1%", "median_household_income": 79101.0, "median_household_income_display": "$79,101", "median_household_income_range_display": "$74,141 to $84,061", "geoid": "4201708768", "state_fips": "42", "county_fips": "017", "county_subdivision_fips": "08768", "census_name": "Bristol township"}, "geometry": {"type": "Polygon", "coordinates": [[[-74.914797, 40.08828], [-74.913828, 40.092551], [-74.913491, 40.093592], [-74.912721, 40.097023], [-74.911705, 40.098169], [-74.910211, 40.098855], [-74.908806, 40.099038], [-74.90591, 40.099907], [-74.902554, 40.104119], [-74.902438, 40.105774], [-74.904401, 40.111187], [-74.904388, 40.113906], [-74.905363, 40.116981], [-74.902824, 40.11958], [-74.900133, 40.128933], [-74.89823, 40.131158], [-74.898451, 40.132235], [-74.892137, 40.132126], [-74.891155, 40.132153], [-74.888232, 40.132145], [-74.884714, 40.134247], [-74.874726, 40.141083], [-74.8728, 40.142391], [-74.872616, 40.142516], [-74.867669, 40.145888], [-74.855542, 40.154153], [-74.855432, 40.154236], [-74.862069, 40.156796], [-74.861671, 40.159256], [-74.864538, 40.160055], [-74.870101, 40.164478], [-74.868766, 40.165811], [-74.858687, 40.166631], [-74.857814, 40.166708], [-74.853146, 40.169741], [-74.851665, 40.170708], [-74.847778, 40.173224], [-74.844387, 40.175349], [-74.844486, 40.173939], [-74.836045, 40.170334], [-74.827993, 40.166896], [-74.82652, 40.166265], [-74.832769, 40.161122], [-74.831993, 40.159862], [-74.828668, 40.155408], [-74.825792, 40.151544], [-74.823159, 40.14795], [-74.828752, 40.145375], [-74.826445, 40.142229], [-74.82274, 40.136936], [-74.8156460275272, 40.1276210418973], [-74.816121, 40.12774], [-74.819499, 40.127614], [-74.822531, 40.126844], [-74.826226, 40.124066], [-74.8285742770925, 40.1205828782409], [-74.828736, 40.120343], [-74.8304977956103, 40.1169658552658], [-74.833103, 40.111972], [-74.8341218189263, 40.107875382452], [-74.836957, 40.109202], [-74.836737, 40.109957], [-74.840012, 40.114229], [-74.841312, 40.115973], [-74.841647, 40.115539], [-74.843555, 40.117586], [-74.848847, 40.112412], [-74.849667, 40.109941], [-74.85316, 40.111327], [-74.8569, 40.110255], [-74.86089, 40.108039], [-74.861302, 40.104788], [-74.861314, 40.102015], [-74.864745, 40.104446], [-74.867312, 40.104048], [-74.870932, 40.106565], [-74.872071, 40.103711], [-74.874896, 40.102375], [-74.874197, 40.09928], [-74.873866, 40.098529], [-74.866075, 40.100938], [-74.869468, 40.09732], [-74.869883, 40.096397], [-74.869058, 40.095303], [-74.865283, 40.094819], [-74.867185, 40.093948], [-74.865771, 40.091631], [-74.860309, 40.090721], [-74.8573975754923, 40.0900032713348], [-74.858209, 40.08881], [-74.859809, 40.08491], [-74.8598787422879, 40.0848606004778], [-74.8613099160471, 40.0838468783593], [-74.862106, 40.083283], [-74.86675, 40.081931], [-74.869526798814, 40.0814844901882], [-74.874648, 40.080661], [-74.8802308145702, 40.0788671868755], [-74.888482, 40.076216], [-74.8978958733522, 40.0734618608138], [-74.8991040929444, 40.0731083819853], [-74.9031756435132, 40.0719172020585], [-74.909011, 40.07021], [-74.9091128530576, 40.0702134420743], [-74.908831, 40.076999], [-74.90967, 40.082679], [-74.911157, 40.084775], [-74.913444, 40.085804], [-74.914689, 40.087734], [-74.914797, 40.08828]]]}}, {"type": "Feature", "properties": {"statewide_rank": 107, "municipality": "Hilltown", "county": "Bucks County", "households_200k_plus_pct": 27.9, "households_200k_plus_display": "27.9%", "median_household_income": 133690.0, "median_household_income_display": "$133,690", "median_household_income_range_display": "$115,483 to $151,897", "geoid": "4201734952", "state_fips": "42", "county_fips": "017", "county_subdivision_fips": "34952", "census_name": "Hilltown township"}, "geometry": {"type": "Polygon", "coordinates": [[[-75.318274, 40.328018], [-75.316181, 40.331062], [-75.303578, 40.343795], [-75.296674, 40.350751], [-75.294926, 40.352478], [-75.292787, 40.354621], [-75.28451, 40.359909], [-75.283667, 40.359307], [-75.282089, 40.361679], [-75.281645, 40.362345], [-75.274714, 40.367817], [-75.275327, 40.368202], [-75.255172, 40.387684], [-75.244701, 40.397905], [-75.219623, 40.382288], [-75.212948, 40.377985], [-75.210644, 40.376442], [-75.214093, 40.373054], [-75.204255, 40.366097], [-75.20047, 40.368162], [-75.198428, 40.366887], [-75.197144, 40.368104], [-75.190152, 40.363837], [-75.188832, 40.363347], [-75.186534, 40.362519], [-75.181369, 40.359386], [-75.183023, 40.358554], [-75.203794, 40.338397], [-75.212694, 40.329858], [-75.227842, 40.31565], [-75.232295, 40.311463], [-75.236395, 40.313666], [-75.243143, 40.307347], [-75.250509, 40.300119], [-75.260646, 40.290079], [-75.260943, 40.289786], [-75.263085, 40.287713], [-75.26432, 40.286836], [-75.267756, 40.288881], [-75.284078, 40.298404], [-75.299332, 40.307556], [-75.299774, 40.307835], [-75.302606, 40.309595], [-75.307674, 40.312688], [-75.311234, 40.314884], [-75.316998, 40.31838], [-75.317177, 40.318489], [-75.315693, 40.320072], [-75.322788, 40.324419], [-75.318274, 40.328018]], [[-75.277488, 40.341495], [-75.274951, 40.34334], [-75.272234, 40.340775], [-75.269394, 40.342769], [-75.266625, 40.344789], [-75.263659, 40.34677], [-75.268026, 40.349543], [-75.268435, 40.35081], [-75.266975, 40.352316], [-75.269697, 40.354417], [-75.275269, 40.351674], [-75.276649, 40.350849], [-75.278776, 40.347457], [-75.276453, 40.346239], [-75.279212, 40.342605], [-75.277488, 40.341495]]]}}, {"type": "Feature", "properties": {"statewide_rank": 95, "municipality": "Ivyland", "county": "Bucks County", "households_200k_plus_pct": 29.5, "households_200k_plus_display": "29.5%", "median_household_income": 149375.0, "median_household_income_display": "$149,375", "median_household_income_range_display": "$103,527 to $195,223", "geoid": "4201737304", "state_fips": "42", "county_fips": "017", "county_subdivision_fips": "37304", "census_name": "Ivyland borough"}, "geometry": {"type": "Polygon", "coordinates": [[[-75.079718, 40.204672], [-75.075884, 40.208663], [-75.078164, 40.209965], [-75.075974, 40.212572], [-75.07341, 40.215629], [-75.072746, 40.215181], [-75.066178, 40.211377], [-75.072171, 40.206097], [-75.069384, 40.2044], [-75.072954, 40.200808], [-75.074131, 40.201499], [-75.076086, 40.202534], [-75.079718, 40.204672]]]}}, {"type": "Feature", "properties": {"statewide_rank": 56, "municipality": "Northampton", "county": "Bucks County", "households_200k_plus_pct": 36.3, "households_200k_plus_display": "36.3%", "median_household_income": 158583.0, "median_household_income_display": "$158,583", "median_household_income_range_display": "$154,775 to $162,391", "geoid": "4201754688", "state_fips": "42", "county_fips": "017", "county_subdivision_fips": "54688", "census_name": "Northampton township"}, "geometry": {"type": "Polygon", "coordinates": [[[-75.072746, 40.215181], [-75.063229, 40.224727], [-75.064348, 40.225371], [-75.06776, 40.227342], [-75.062425, 40.231873], [-75.057874, 40.236538], [-75.054373, 40.240016], [-75.051115, 40.238841], [-75.051121, 40.241894], [-75.050912, 40.243279], [-75.047974, 40.244767], [-75.046622, 40.244497], [-75.045821, 40.243158], [-75.043212, 40.243867], [-75.042537, 40.245647], [-75.039335, 40.247833], [-75.037042, 40.248645], [-75.035102, 40.24824], [-75.034515, 40.249501], [-75.036108, 40.250979], [-75.036286, 40.253772], [-75.033911, 40.255602], [-75.03276, 40.255665], [-75.029172, 40.253279], [-75.026115, 40.252919], [-75.024468, 40.252064], [-75.021463, 40.248694], [-75.019523, 40.248289], [-75.015702, 40.24928], [-75.010117, 40.249461], [-75.008754, 40.250997], [-75.005772, 40.251841], [-75.003207, 40.248539], [-75.001363, 40.248173], [-74.998046, 40.250218], [-74.995689, 40.250599], [-74.994565, 40.248857], [-74.99566, 40.24549], [-74.995856, 40.243337], [-74.994666, 40.241635], [-74.992273, 40.240523], [-74.988217, 40.242009], [-74.985219, 40.246269], [-74.984188, 40.246262], [-74.980781, 40.244365], [-74.979458, 40.243405], [-74.978269, 40.240754], [-74.97552, 40.239755], [-74.972111, 40.240655], [-74.971995, 40.240655], [-74.969877, 40.240204], [-74.970231, 40.238267], [-74.971584, 40.235565], [-74.9737, 40.234124], [-74.97423, 40.232007], [-74.972291, 40.230835], [-74.966061, 40.229842], [-74.962831, 40.226868], [-74.964269, 40.224092], [-74.96536, 40.221598], [-74.961776, 40.220426], [-74.957194, 40.218127], [-74.954201, 40.211819], [-74.947785, 40.211682], [-74.945186, 40.211648], [-74.94441, 40.211453], [-74.940631, 40.20902], [-74.940397, 40.207353], [-74.941396, 40.201756], [-74.941739, 40.197578], [-74.942539, 40.195466], [-74.942021, 40.194226], [-74.940116, 40.192713], [-74.933952, 40.189015], [-74.927868, 40.189457], [-74.925728, 40.189371], [-74.922647, 40.187094], [-74.922619, 40.18617], [-74.924123, 40.185542], [-74.928814, 40.183819], [-74.930668, 40.183518], [-74.934311, 40.181943], [-74.938012, 40.18136], [-74.950407, 40.177897], [-74.951757, 40.178123], [-74.953636, 40.17961], [-74.955372, 40.179991], [-74.957133, 40.179237], [-74.956628, 40.178332], [-74.959353, 40.17795], [-74.968045, 40.173824], [-74.976116, 40.167395], [-74.983829, 40.163231], [-74.990211, 40.166749], [-74.998796, 40.171456], [-74.999685, 40.172025], [-75.011013, 40.178731], [-75.013435, 40.180129], [-75.018797, 40.18328], [-75.03242, 40.19138], [-75.043802, 40.198087], [-75.047252, 40.200144], [-75.049268, 40.201334], [-75.057191, 40.206043], [-75.066178, 40.211377], [-75.072746, 40.215181]]]}}, {"type": "Feature", "properties": {"statewide_rank": 482, "municipality": "Falls", "county": "Bucks County", "households_200k_plus_pct": 12.3, "households_200k_plus_display": "12.3%", "median_household_income": 93223.0, "median_household_income_display": "$93,223", "median_household_income_range_display": "$88,270 to $98,176", "geoid": "4201725112", "state_fips": "42", "county_fips": "017", "county_subdivision_fips": "25112", "census_name": "Falls township"}, "geometry": {"type": "MultiPolygon", "coordinates": [[[[-74.801592, 40.209693], [-74.800083, 40.210255], [-74.797929, 40.211076], [-74.78896, 40.217072], [-74.787011, 40.214626], [-74.788989, 40.213711], [-74.791664, 40.212463], [-74.791459, 40.211986], [-74.792228, 40.211787], [-74.792379, 40.212129], [-74.791504, 40.209689], [-74.793804, 40.211475], [-74.794301, 40.209495], [-74.797855, 40.209682], [-74.79704, 40.207674], [-74.798465, 40.207433], [-74.800176, 40.208763], [-74.801592, 40.209693]]], [[[-74.871235, 40.175121], [-74.870066, 40.179508], [-74.869811, 40.180573], [-74.870121, 40.183802], [-74.869379, 40.183895], [-74.869369, 40.189077], [-74.86941, 40.192728], [-74.871055, 40.192989], [-74.86489, 40.193551], [-74.847017, 40.195158], [-74.84764, 40.200398], [-74.834098, 40.201131], [-74.830118, 40.201355], [-74.830987, 40.20433], [-74.831116, 40.204603], [-74.822372, 40.205624], [-74.802813, 40.207737], [-74.802764, 40.207735], [-74.803093, 40.207481], [-74.800259, 40.206476], [-74.799767, 40.204302], [-74.800653, 40.202997], [-74.798179, 40.202477], [-74.793247, 40.203102], [-74.78868, 40.200795], [-74.787274, 40.201577], [-74.783814, 40.203586], [-74.778646, 40.198639], [-74.778444, 40.198406], [-74.776258, 40.196362], [-74.774713, 40.19398], [-74.76406, 40.198164], [-74.762283, 40.198681], [-74.7611647738199, 40.1991112671964], [-74.7598984921276, 40.1974311041532], [-74.759505, 40.196909], [-74.756905, 40.189409], [-74.755605, 40.186709], [-74.754305, 40.185209], [-74.7519933317261, 40.1835197039537], [-74.751705, 40.183309], [-74.744105, 40.181009], [-74.737205, 40.177609], [-74.733804, 40.174509], [-74.722304, 40.160609], [-74.721504, 40.158409], [-74.721604, 40.15381], [-74.7221310215466, 40.1503235497687], [-74.722189, 40.14994], [-74.724362, 40.146443], [-74.731691, 40.141942], [-74.740555, 40.135492], [-74.7415522766997, 40.1352144901715], [-74.744411, 40.134419], [-74.75313, 40.135033], [-74.758882, 40.134036], [-74.762864, 40.132541], [-74.769488, 40.129145], [-74.7758221526813, 40.1249608850373], [-74.781965466095, 40.1209028316768], [-74.782106, 40.12081], [-74.785106, 40.12031], [-74.788706, 40.12041], [-74.7916519900689, 40.1210040993333], [-74.800607, 40.12281], [-74.8053365419257, 40.1243994362209], [-74.804815, 40.125808], [-74.804749, 40.131816], [-74.800724, 40.132925], [-74.796709, 40.13321], [-74.794807, 40.133812], [-74.796128, 40.146941], [-74.802216, 40.145188], [-74.80239, 40.150451], [-74.80647, 40.149625], [-74.805792, 40.151135], [-74.809294, 40.151948], [-74.810723, 40.148725], [-74.814213, 40.149133], [-74.813028, 40.156359], [-74.815374, 40.155673], [-74.820561, 40.155404], [-74.819081, 40.153676], [-74.820762, 40.153212], [-74.819852, 40.151337], [-74.818291, 40.151884], [-74.816498, 40.14979], [-74.82245, 40.147063], [-74.823159, 40.14795], [-74.825792, 40.151544], [-74.828668, 40.155408], [-74.831993, 40.159862], [-74.832769, 40.161122], [-74.82652, 40.166265], [-74.827993, 40.166896], [-74.836045, 40.170334], [-74.844486, 40.173939], [-74.844387, 40.175349], [-74.847778, 40.173224], [-74.851665, 40.170708], [-74.853146, 40.169741], [-74.857814, 40.166708], [-74.858687, 40.166631], [-74.868766, 40.165811], [-74.870226, 40.170214], [-74.870788, 40.171931], [-74.871235, 40.175121]]]]}}, {"type": "Feature", "properties": {"statewide_rank": 503, "municipality": "Morrisville", "county": "Bucks County", "households_200k_plus_pct": 12.1, "households_200k_plus_display": "12.1%", "median_household_income": 99526.0, "median_household_income_display": "$99,526", "median_household_income_range_display": "$76,823 to $122,229", "geoid": "4201751144", "state_fips": "42", "county_fips": "017", "county_subdivision_fips": "51144", "census_name": "Morrisville borough"}, "geometry": {"type": "Polygon", "coordinates": [[[-74.802764, 40.207735], [-74.800176, 40.208763], [-74.798465, 40.207433], [-74.79704, 40.207674], [-74.797855, 40.209682], [-74.794301, 40.209495], [-74.793804, 40.211475], [-74.791504, 40.209689], [-74.792379, 40.212129], [-74.792228, 40.211787], [-74.791459, 40.211986], [-74.791664, 40.212463], [-74.788989, 40.213711], [-74.787011, 40.214626], [-74.78896, 40.217072], [-74.784756, 40.21998], [-74.7819525768579, 40.2219262948353], [-74.781206, 40.221508], [-74.7784127933768, 40.2196763842729], [-74.771719, 40.215287], [-74.7716787099914, 40.215223025491], [-74.768509, 40.21019], [-74.767677, 40.207752], [-74.7644300939657, 40.2034438499596], [-74.7611647738199, 40.1991112671964], [-74.762283, 40.198681], [-74.76406, 40.198164], [-74.774713, 40.19398], [-74.776258, 40.196362], [-74.778444, 40.198406], [-74.778646, 40.198639], [-74.783814, 40.203586], [-74.787274, 40.201577], [-74.78868, 40.200795], [-74.793247, 40.203102], [-74.798179, 40.202477], [-74.800653, 40.202997], [-74.799767, 40.204302], [-74.800259, 40.206476], [-74.803093, 40.207481], [-74.802764, 40.207735]]]}}, {"type": "Feature", "properties": {"statewide_rank": 138, "municipality": "East Rockhill", "county": "Bucks County", "households_200k_plus_pct": 25.1, "households_200k_plus_display": "25.1%", "median_household_income": 134492.0, "median_household_income_display": "$134,492", "median_household_income_range_display": "$118,444 to $150,540", "geoid": "4201721760", "state_fips": "42", "county_fips": "017", "county_subdivision_fips": "21760", "census_name": "East Rockhill township"}, "geometry": {"type": "Polygon", "coordinates": [[[-75.33633, 40.406422], [-75.314107, 40.408799], [-75.294478, 40.410903], [-75.294062, 40.410955], [-75.296269, 40.424892], [-75.296685, 40.426248], [-75.298459, 40.436349], [-75.298854, 40.439419], [-75.296301, 40.441128], [-75.29308, 40.442242], [-75.291233, 40.44188], [-75.290686, 40.445422], [-75.289435, 40.445756], [-75.289628, 40.447404], [-75.288132, 40.450249], [-75.282912, 40.450907], [-75.280202, 40.452751], [-75.278258, 40.455031], [-75.275855, 40.455294], [-75.274019, 40.453337], [-75.273295, 40.449784], [-75.272217, 40.448306], [-75.272535, 40.445945], [-75.270497, 40.442919], [-75.270316, 40.441748], [-75.267916, 40.441061], [-75.267672, 40.439633], [-75.265849, 40.436653], [-75.264849, 40.436018], [-75.262964, 40.434831], [-75.261411, 40.432399], [-75.256525, 40.429293], [-75.255617, 40.429118], [-75.255498, 40.428101], [-75.253662, 40.419353], [-75.252516, 40.416293], [-75.251661, 40.411739], [-75.250111, 40.406982], [-75.247969, 40.404002], [-75.247142, 40.401542], [-75.244701, 40.397905], [-75.255172, 40.387684], [-75.275327, 40.368202], [-75.28273, 40.372806], [-75.278877, 40.376397], [-75.282964, 40.379113], [-75.282076, 40.379697], [-75.274674, 40.383744], [-75.28253, 40.388603], [-75.30729, 40.377788], [-75.311387, 40.375323], [-75.311732, 40.371708], [-75.309709, 40.370117], [-75.313105, 40.369928], [-75.312395, 40.376544], [-75.312533, 40.382699], [-75.321257, 40.391145], [-75.324002, 40.393804], [-75.32471, 40.395741], [-75.327369, 40.397707], [-75.33633, 40.406422]]]}}, {"type": "Feature", "properties": {"statewide_rank": 310, "municipality": "Haycock", "county": "Bucks County", "households_200k_plus_pct": 16.4, "households_200k_plus_display": "16.4%", "median_household_income": 101071.0, "median_household_income_display": "$101,071", "median_household_income_range_display": "$84,376 to $117,766", "geoid": "4201733224", "state_fips": "42", "county_fips": "017", "county_subdivision_fips": "33224", "census_name": "Haycock township"}, "geometry": {"type": "Polygon", "coordinates": [[[-75.302264, 40.473416], [-75.297177, 40.473889], [-75.300375, 40.493455], [-75.296796, 40.493886], [-75.283559, 40.498575], [-75.23361, 40.516272], [-75.231134, 40.517162], [-75.229828, 40.517099], [-75.22088, 40.513796], [-75.218881, 40.513654], [-75.215418, 40.510816], [-75.21089, 40.505682], [-75.207947, 40.50448], [-75.203318, 40.499206], [-75.201722, 40.498263], [-75.20012, 40.495338], [-75.197637, 40.493676], [-75.194507, 40.4926], [-75.192549, 40.490962], [-75.190308, 40.487042], [-75.190044, 40.481965], [-75.18819, 40.476945], [-75.185204, 40.47443], [-75.184625, 40.473282], [-75.188491, 40.471857], [-75.189452, 40.474024], [-75.19197, 40.475153], [-75.193999, 40.475253], [-75.194259, 40.47188], [-75.195464, 40.471331], [-75.199965, 40.471621], [-75.201507, 40.469096], [-75.207275, 40.468745], [-75.212387, 40.470301], [-75.216248, 40.469836], [-75.218399, 40.467936], [-75.21875, 40.464564], [-75.226578, 40.464358], [-75.229141, 40.462801], [-75.230576, 40.459895], [-75.230316, 40.45862], [-75.232941, 40.456332], [-75.234207, 40.454546], [-75.232851, 40.451903], [-75.233412, 40.450975], [-75.238079, 40.449831], [-75.239183, 40.447977], [-75.238171, 40.447467], [-75.240463, 40.444459], [-75.240803, 40.441711], [-75.247375, 40.438479], [-75.24921, 40.436559], [-75.254045, 40.434989], [-75.255102, 40.432656], [-75.253787, 40.430415], [-75.255617, 40.429118], [-75.256525, 40.429293], [-75.261411, 40.432399], [-75.262964, 40.434831], [-75.264849, 40.436018], [-75.265849, 40.436653], [-75.267672, 40.439633], [-75.267916, 40.441061], [-75.270316, 40.441748], [-75.270497, 40.442919], [-75.272535, 40.445945], [-75.272217, 40.448306], [-75.273295, 40.449784], [-75.274019, 40.453337], [-75.275855, 40.455294], [-75.278258, 40.455031], [-75.280202, 40.452751], [-75.282912, 40.450907], [-75.288132, 40.450249], [-75.289628, 40.447404], [-75.289435, 40.445756], [-75.290686, 40.445422], [-75.291233, 40.44188], [-75.29308, 40.442242], [-75.296301, 40.441128], [-75.298854, 40.439419], [-75.301053, 40.453358], [-75.302105, 40.466416], [-75.302406, 40.468878], [-75.302264, 40.473416]]]}}, {"type": "Feature", "properties": {"statewide_rank": 99, "municipality": "Newtown", "county": "Bucks County", "households_200k_plus_pct": 28.6, "households_200k_plus_display": "28.6%", "median_household_income": 147617.0, "median_household_income_display": "$147,617", "median_household_income_range_display": "$139,340 to $155,894", "geoid": "4201754192", "state_fips": "42", "county_fips": "017", "county_subdivision_fips": "54192", "census_name": "Newtown township"}, "geometry": {"type": "MultiPolygon", "coordinates": [[[[-74.926773, 40.22947], [-74.925909, 40.229442], [-74.925936, 40.228795], [-74.926803, 40.228828], [-74.926773, 40.22947]]], [[[-74.985219, 40.246269], [-74.969318, 40.262524], [-74.960524, 40.271289], [-74.950583, 40.269488], [-74.926162, 40.265122], [-74.914264, 40.262994], [-74.911793, 40.251035], [-74.908994, 40.251201], [-74.905547, 40.245249], [-74.903698, 40.242053], [-74.901744, 40.242426], [-74.896358, 40.239517], [-74.896337, 40.235626], [-74.893747, 40.232374], [-74.887906, 40.225691], [-74.887551, 40.224735], [-74.902454, 40.22134], [-74.909857, 40.22202], [-74.910629, 40.222041], [-74.918023, 40.220661], [-74.931879, 40.217029], [-74.94331, 40.214175], [-74.94441, 40.211453], [-74.945186, 40.211648], [-74.947785, 40.211682], [-74.954201, 40.211819], [-74.957194, 40.218127], [-74.961776, 40.220426], [-74.96536, 40.221598], [-74.964269, 40.224092], [-74.962831, 40.226868], [-74.966061, 40.229842], [-74.972291, 40.230835], [-74.97423, 40.232007], [-74.9737, 40.234124], [-74.971584, 40.235565], [-74.970231, 40.238267], [-74.969877, 40.240204], [-74.971995, 40.240655], [-74.972111, 40.240655], [-74.97552, 40.239755], [-74.978269, 40.240754], [-74.979458, 40.243405], [-74.980781, 40.244365], [-74.984188, 40.246262], [-74.985219, 40.246269]], [[-74.93819, 40.222013], [-74.933799, 40.220823], [-74.931782, 40.221306], [-74.931405, 40.2242], [-74.925633, 40.225186], [-74.925489, 40.226049], [-74.925269, 40.228771], [-74.925008, 40.23232], [-74.927121, 40.232554], [-74.927031, 40.235458], [-74.928897, 40.235533], [-74.929093, 40.232844], [-74.933591, 40.233599], [-74.933308, 40.235706], [-74.930524, 40.235597], [-74.929945, 40.237622], [-74.934883, 40.237793], [-74.937174, 40.233826], [-74.937323, 40.232686], [-74.937761, 40.229349], [-74.938178, 40.227936], [-74.938661, 40.224167], [-74.93819, 40.222013]]]]}}, {"type": "Feature", "properties": {"statewide_rank": 280, "municipality": "Nockamixon", "county": "Bucks County", "households_200k_plus_pct": 17.4, "households_200k_plus_display": "17.4%", "median_household_income": 104965.0, "median_household_income_display": "$104,965", "median_household_income_range_display": "$73,000 to $136,930", "geoid": "4201754576", "state_fips": "42", "county_fips": "017", "county_subdivision_fips": "54576", "census_name": "Nockamixon township"}, "geometry": {"type": "Polygon", "coordinates": [[[-75.231134, 40.517162], [-75.215606, 40.532706], [-75.228019, 40.541736], [-75.223569, 40.543106], [-75.19232, 40.554979], [-75.190027, 40.555624], [-75.179033, 40.559656], [-75.166931813911, 40.5641066155818], [-75.162871, 40.564096], [-75.158446, 40.565286], [-75.1505690556882, 40.5708790713086], [-75.149275, 40.568884], [-75.150314, 40.565013], [-75.149203, 40.563404], [-75.144637, 40.553924], [-75.138719, 40.553639], [-75.137594, 40.546158], [-75.137022, 40.543068], [-75.13498, 40.5393], [-75.132621, 40.537668], [-75.129814, 40.536832], [-75.129226, 40.535648], [-75.127259, 40.534415], [-75.121226, 40.534685], [-75.117374, 40.532704], [-75.113143, 40.532236], [-75.11005, 40.529917], [-75.125018, 40.516227], [-75.140292, 40.502251], [-75.141439, 40.500978], [-75.142279, 40.5001], [-75.150198, 40.492535], [-75.157083, 40.488088], [-75.166123, 40.479173], [-75.16567, 40.478337], [-75.178035, 40.46659], [-75.182196, 40.469075], [-75.187507, 40.470104], [-75.188491, 40.471857], [-75.184625, 40.473282], [-75.185204, 40.47443], [-75.18819, 40.476945], [-75.190044, 40.481965], [-75.190308, 40.487042], [-75.192549, 40.490962], [-75.194507, 40.4926], [-75.197637, 40.493676], [-75.20012, 40.495338], [-75.201722, 40.498263], [-75.203318, 40.499206], [-75.207947, 40.50448], [-75.21089, 40.505682], [-75.215418, 40.510816], [-75.218881, 40.513654], [-75.22088, 40.513796], [-75.229828, 40.517099], [-75.231134, 40.517162]]]}}, {"type": "Feature", "properties": {"statewide_rank": 14, "municipality": "Solebury", "county": "Bucks County", "households_200k_plus_pct": 49.2, "households_200k_plus_display": "49.2%", "median_household_income": 195962.0, "median_household_income_display": "$195,962", "median_household_income_range_display": "$178,243 to $213,681", "geoid": "4201771752", "state_fips": "42", "county_fips": "017", "county_subdivision_fips": "71752", "census_name": "Solebury township"}, "geometry": {"type": "Polygon", "coordinates": [[[-75.08057, 40.3783], [-75.067558, 40.389993], [-75.064275, 40.38799], [-75.063922, 40.387628], [-75.056513, 40.395083], [-75.057855, 40.397526], [-75.041160188393, 40.4105525207764], [-75.035504, 40.407443], [-75.034427, 40.406066], [-75.028315, 40.403883], [-75.024775, 40.403455], [-75.006739, 40.407646], [-75.003784, 40.407621], [-74.998651, 40.410093], [-74.996378, 40.410528], [-74.988901, 40.408773], [-74.985467, 40.405935], [-74.9851533397703, 40.4057624409498], [-74.982735, 40.404432], [-74.9794280861189, 40.4029797305604], [-74.976867, 40.401855], [-74.96813, 40.399129], [-74.9667830839964, 40.3978635572606], [-74.963997, 40.395246], [-74.9542604530821, 40.3765473382118], [-74.953939, 40.37593], [-74.9528267618004, 40.373550317657], [-74.95547, 40.373196], [-74.966334, 40.372082], [-74.964906, 40.366467], [-74.968519, 40.365828], [-74.968058, 40.362177], [-74.967617, 40.359], [-74.966424, 40.351409], [-74.949303, 40.353294], [-74.948906, 40.350342], [-74.948358, 40.3499], [-74.9453517872144, 40.3497444129868], [-74.945088, 40.347332], [-74.943776, 40.342564], [-74.9429542775691, 40.3416426197195], [-74.939711, 40.338006], [-74.933111, 40.333106], [-74.926907761407, 40.3294634063174], [-74.981015, 40.319204], [-74.981046, 40.319169], [-74.98182, 40.321077], [-74.985989, 40.323685], [-74.988652, 40.322217], [-75.014068, 40.337521], [-75.032495, 40.348736], [-75.040925, 40.353654], [-75.04221, 40.35397], [-75.042476, 40.354634], [-75.069399, 40.371415], [-75.078047, 40.376573], [-75.08057, 40.3783]]]}}, {"type": "Feature", "properties": {"statewide_rank": 268, "municipality": "Tinicum", "county": "Bucks County", "households_200k_plus_pct": 17.7, "households_200k_plus_display": "17.7%", "median_household_income": 122125.0, "median_household_income_display": "$122,125", "median_household_income_range_display": "$98,464 to $145,786", "geoid": "4201776784", "state_fips": "42", "county_fips": "017", "county_subdivision_fips": "76784", "census_name": "Tinicum township"}, "geometry": {"type": "Polygon", "coordinates": [[[-75.178035, 40.46659], [-75.16567, 40.478337], [-75.166123, 40.479173], [-75.157083, 40.488088], [-75.150198, 40.492535], [-75.142279, 40.5001], [-75.141439, 40.500978], [-75.140292, 40.502251], [-75.125018, 40.516227], [-75.11005, 40.529917], [-75.0839306812449, 40.5533790264842], [-75.078503, 40.548296], [-75.068615, 40.542223], [-75.067257, 40.539584], [-75.066402, 40.536532], [-75.0664004363002, 40.5365196238886], [-75.06509, 40.526148], [-75.065853, 40.519495], [-75.0656017894998, 40.5170526448165], [-75.064949, 40.510706], [-75.064842, 40.503503], [-75.063268, 40.499355], [-75.062625, 40.48955], [-75.062868, 40.481637], [-75.064327, 40.476795], [-75.067715, 40.473669], [-75.067543, 40.468133], [-75.067016, 40.465308], [-75.070419, 40.458407], [-75.070568, 40.455165], [-75.066515, 40.447176], [-75.062923, 40.433407], [-75.061489, 40.422848], [-75.0606621747204, 40.4213505727709], [-75.062788, 40.421553], [-75.066562, 40.423128], [-75.071989, 40.427314], [-75.073937, 40.429835], [-75.075828, 40.434293], [-75.080016, 40.435461], [-75.081602, 40.439734], [-75.083049, 40.441708], [-75.084121, 40.442019], [-75.086337, 40.441538], [-75.088208, 40.440367], [-75.090572, 40.43756], [-75.091807, 40.437361], [-75.095833, 40.440662], [-75.097638, 40.440928], [-75.099332, 40.439681], [-75.094718, 40.436777], [-75.094983, 40.434679], [-75.096076, 40.434411], [-75.099218, 40.436322], [-75.101329, 40.436487], [-75.106292, 40.435221], [-75.107494, 40.434492], [-75.108366, 40.43267], [-75.109545, 40.432104], [-75.116552, 40.433727], [-75.120101, 40.434571], [-75.124166, 40.438263], [-75.129739, 40.436873], [-75.13382, 40.435311], [-75.137749, 40.434704], [-75.139276, 40.43541], [-75.141234, 40.437512], [-75.141236, 40.43993], [-75.143012, 40.443756], [-75.145669, 40.445465], [-75.154445, 40.441444], [-75.159222, 40.442023], [-75.161498, 40.442755], [-75.162527, 40.44328], [-75.163957, 40.445532], [-75.163538, 40.447017], [-75.159125, 40.450852], [-75.156357, 40.452253], [-75.157013, 40.455585], [-75.16121, 40.459723], [-75.161745, 40.461479], [-75.164399, 40.461386], [-75.168235, 40.462371], [-75.173554, 40.46311], [-75.175553, 40.464477], [-75.176088, 40.466188], [-75.178035, 40.46659]]]}}, {"type": "Feature", "properties": {"statewide_rank": 7, "municipality": "Upper Makefield", "county": "Bucks County", "households_200k_plus_pct": 55.3, "households_200k_plus_display": "55.3%", "median_household_income": 212768.0, "median_household_income_display": "$212,768", "median_household_income_range_display": "$186,611 to $238,925", "geoid": "4201779128", "state_fips": "42", "county_fips": "017", "county_subdivision_fips": "79128", "census_name": "Upper Makefield township"}, "geometry": {"type": "Polygon", "coordinates": [[[-74.981046, 40.319169], [-74.981015, 40.319204], [-74.926907761407, 40.3294634063174], [-74.92681, 40.329406], [-74.91741, 40.322406], [-74.90831, 40.316907], [-74.90331, 40.315607], [-74.9013910325903, 40.3154679645407], [-74.896409, 40.315107], [-74.8956541147541, 40.3147767377049], [-74.891609, 40.313007], [-74.887949658132, 40.3108113948792], [-74.887109, 40.310307], [-74.880609, 40.305607], [-74.8734614453268, 40.2996122767257], [-74.8682638417837, 40.2952529963347], [-74.868209, 40.295207], [-74.864692, 40.290684], [-74.8643344448496, 40.2901646937101], [-74.860492, 40.284584], [-74.8566463800834, 40.277656285607], [-74.856508, 40.277407], [-74.853118148928, 40.269729984337], [-74.889142, 40.265371], [-74.899348, 40.264004], [-74.90921, 40.262984], [-74.914264, 40.262994], [-74.926162, 40.265122], [-74.950583, 40.269488], [-74.960524, 40.271289], [-74.955043, 40.276746], [-74.999234, 40.301949], [-74.981046, 40.319169]]]}}, {"type": "Feature", "properties": {"statewide_rank": 1133, "municipality": "Bristol", "county": "Bucks County", "households_200k_plus_pct": 6.4, "households_200k_plus_display": "6.4%", "median_household_income": 76042.0, "median_household_income_display": "$76,042", "median_household_income_range_display": "$53,936 to $98,148", "geoid": "4201708760", "state_fips": "42", "county_fips": "017", "county_subdivision_fips": "08760", "census_name": "Bristol borough"}, "geometry": {"type": "Polygon", "coordinates": [[[-74.874896, 40.102375], [-74.872071, 40.103711], [-74.870932, 40.106565], [-74.867312, 40.104048], [-74.864745, 40.104446], [-74.861314, 40.102015], [-74.861302, 40.104788], [-74.86089, 40.108039], [-74.8569, 40.110255], [-74.85316, 40.111327], [-74.849667, 40.109941], [-74.848847, 40.112412], [-74.843555, 40.117586], [-74.841647, 40.115539], [-74.841312, 40.115973], [-74.840012, 40.114229], [-74.836737, 40.109957], [-74.836957, 40.109202], [-74.8341218189263, 40.107875382452], [-74.835108, 40.10391], [-74.8379824766055, 40.1009364035115], [-74.838008, 40.10091], [-74.843431, 40.098002], [-74.8444053169391, 40.0976345577963], [-74.8478574193576, 40.0963326732975], [-74.851126, 40.0951], [-74.854609, 40.09327], [-74.856509, 40.09131], [-74.8573975754923, 40.0900032713348], [-74.860309, 40.090721], [-74.865771, 40.091631], [-74.867185, 40.093948], [-74.865283, 40.094819], [-74.869058, 40.095303], [-74.869883, 40.096397], [-74.869468, 40.09732], [-74.866075, 40.100938], [-74.873866, 40.098529], [-74.874197, 40.09928], [-74.874896, 40.102375]]]}}, {"type": "Feature", "properties": {"statewide_rank": 267, "municipality": "Lower Southampton", "county": "Bucks County", "households_200k_plus_pct": 17.8, "households_200k_plus_display": "17.8%", "median_household_income": 103211.0, "median_household_income_display": "$103,211", "median_household_income_range_display": "$93,548 to $112,874", "geoid": "4201745112", "state_fips": "42", "county_fips": "017", "county_subdivision_fips": "45112", "census_name": "Lower Southampton township"}, "geometry": {"type": "Polygon", "coordinates": [[[-75.029301, 40.146509], [-75.021417, 40.154091], [-75.017805, 40.157909], [-75.016584, 40.159088], [-75.008999, 40.166612], [-75.007648, 40.167136], [-74.998796, 40.171456], [-74.990211, 40.166749], [-74.983829, 40.163231], [-74.976116, 40.167395], [-74.968045, 40.173824], [-74.959353, 40.17795], [-74.956628, 40.178332], [-74.957414, 40.174173], [-74.957917, 40.17373], [-74.957215, 40.172687], [-74.951005, 40.168346], [-74.948683, 40.165981], [-74.949419, 40.163842], [-74.95218, 40.161725], [-74.956762, 40.158889], [-74.957232, 40.157988], [-74.956238, 40.151771], [-74.957443, 40.148169], [-74.95749, 40.148001], [-74.957672, 40.148104], [-74.970904, 40.155786], [-74.976435, 40.150051], [-74.979437, 40.146936], [-74.986243, 40.139587], [-74.987432, 40.138399], [-74.990067, 40.135732], [-74.993894, 40.131883], [-74.997885, 40.127816], [-75.003255, 40.131012], [-75.005946, 40.132524], [-75.009117, 40.134355], [-75.015066, 40.137992], [-75.017336, 40.139376], [-75.025522, 40.144272], [-75.029301, 40.146509]]]}}, {"type": "Feature", "properties": {"statewide_rank": 69, "municipality": "Warwick", "county": "Bucks County", "households_200k_plus_pct": 34.5, "households_200k_plus_display": "34.5%", "median_household_income": 155351.0, "median_household_income_display": "$155,351", "median_household_income_range_display": "$140,837 to $169,865", "geoid": "4201781144", "state_fips": "42", "county_fips": "017", "county_subdivision_fips": "81144", "census_name": "Warwick township"}, "geometry": {"type": "Polygon", "coordinates": [[[-75.113123, 40.254384], [-75.112466, 40.255026], [-75.117162, 40.25788], [-75.112133, 40.262702], [-75.116154, 40.265533], [-75.112059, 40.269671], [-75.113106, 40.271858], [-75.107986, 40.272512], [-75.105518, 40.273865], [-75.101641, 40.276932], [-75.09575, 40.276708], [-75.089055, 40.282745], [-75.084473, 40.27999], [-75.073393, 40.273407], [-75.074733, 40.272061], [-75.072702, 40.270246], [-75.072461, 40.269071], [-75.069518, 40.26628], [-75.065801, 40.263397], [-75.064222, 40.262859], [-75.061752, 40.262996], [-75.060755, 40.265834], [-75.058112, 40.268989], [-75.055172, 40.269126], [-75.053171, 40.26782], [-75.053229, 40.265973], [-75.055049, 40.263225], [-75.057279, 40.257548], [-75.054808, 40.255837], [-75.048871, 40.257011], [-75.04605, 40.25949], [-75.044242, 40.263091], [-75.040852, 40.260754], [-75.033911, 40.255602], [-75.036286, 40.253772], [-75.036108, 40.250979], [-75.034515, 40.249501], [-75.035102, 40.24824], [-75.037042, 40.248645], [-75.039335, 40.247833], [-75.042537, 40.245647], [-75.043212, 40.243867], [-75.045821, 40.243158], [-75.046622, 40.244497], [-75.047974, 40.244767], [-75.050912, 40.243279], [-75.051121, 40.241894], [-75.051115, 40.238841], [-75.054373, 40.240016], [-75.057874, 40.236538], [-75.062425, 40.231873], [-75.06776, 40.227342], [-75.064348, 40.225371], [-75.063229, 40.224727], [-75.072746, 40.215181], [-75.07341, 40.215629], [-75.083408, 40.221626], [-75.093573, 40.227548], [-75.0949, 40.228288], [-75.1028, 40.232883], [-75.110993, 40.23781], [-75.122519, 40.244918], [-75.113123, 40.254384]]]}}, {"type": "Feature", "properties": {"statewide_rank": 45, "municipality": "Doylestown", "county": "Bucks County", "households_200k_plus_pct": 39.6, "households_200k_plus_display": "39.6%", "median_household_income": 149764.0, "median_household_income_display": "$149,764", "median_household_income_range_display": "$126,353 to $173,175", "geoid": "4201719792", "state_fips": "42", "county_fips": "017", "county_subdivision_fips": "19792", "census_name": "Doylestown township"}, "geometry": {"type": "MultiPolygon", "coordinates": [[[[-75.128618, 40.320727], [-75.124079, 40.325012], [-75.119058, 40.321969], [-75.118776, 40.321804], [-75.12334, 40.319141], [-75.124505, 40.318092], [-75.125941, 40.319033], [-75.128618, 40.320727]]], [[[-75.192855, 40.31007], [-75.183938, 40.31415], [-75.177975, 40.316263], [-75.173511, 40.319079], [-75.172473, 40.320627], [-75.168725, 40.323572], [-75.166038, 40.326364], [-75.157233, 40.335035], [-75.151084, 40.341221], [-75.136101, 40.332164], [-75.131929, 40.329665], [-75.128766, 40.327776], [-75.130718, 40.324228], [-75.130699, 40.322022], [-75.138449, 40.32682], [-75.143622, 40.322141], [-75.141377, 40.320296], [-75.135921, 40.316679], [-75.136704, 40.315858], [-75.135461, 40.315022], [-75.136492, 40.314075], [-75.140032, 40.31634], [-75.143069, 40.317828], [-75.143554, 40.316551], [-75.137577, 40.313102], [-75.140678, 40.310244], [-75.143823, 40.312187], [-75.14449, 40.31153], [-75.145023, 40.311852], [-75.148583, 40.309516], [-75.142269, 40.305614], [-75.142913, 40.305145], [-75.136169, 40.301518], [-75.134607, 40.302142], [-75.131823, 40.304702], [-75.130406, 40.303773], [-75.129955, 40.301661], [-75.128468, 40.301789], [-75.127969, 40.298042], [-75.123685, 40.298555], [-75.122534, 40.299599], [-75.122462, 40.301771], [-75.1213, 40.303522], [-75.122876, 40.305691], [-75.121489, 40.307518], [-75.123587, 40.308642], [-75.12164, 40.31052], [-75.118673, 40.308914], [-75.115069, 40.312275], [-75.110154, 40.312762], [-75.110319, 40.313569], [-75.109266, 40.313736], [-75.109105, 40.312913], [-75.105904, 40.313735], [-75.105509, 40.313882], [-75.082607, 40.300537], [-75.082224, 40.296216], [-75.100592, 40.289914], [-75.089055, 40.282745], [-75.09575, 40.276708], [-75.101641, 40.276932], [-75.105518, 40.273865], [-75.107986, 40.272512], [-75.113106, 40.271858], [-75.112059, 40.269671], [-75.116154, 40.265533], [-75.119091, 40.26731], [-75.125785, 40.261223], [-75.130873, 40.264306], [-75.143495, 40.271404], [-75.152016, 40.262868], [-75.156478, 40.265592], [-75.164211, 40.270301], [-75.176959, 40.278028], [-75.185457, 40.283129], [-75.174285, 40.293652], [-75.177815, 40.295868], [-75.180239, 40.297409], [-75.170427, 40.299321], [-75.166918, 40.299152], [-75.165623, 40.300161], [-75.159364, 40.296285], [-75.157218, 40.298169], [-75.157722, 40.299349], [-75.155493, 40.299882], [-75.155266, 40.29997], [-75.155105, 40.303025], [-75.156613, 40.305237], [-75.165151, 40.301741], [-75.168653, 40.304751], [-75.169103, 40.305496], [-75.172766, 40.304594], [-75.174811, 40.302916], [-75.175657, 40.303477], [-75.177146, 40.30212], [-75.179639, 40.303697], [-75.182078, 40.301531], [-75.184051, 40.302794], [-75.185471, 40.30235], [-75.186651, 40.304258], [-75.185252, 40.305149], [-75.181903, 40.306017], [-75.183317, 40.307039], [-75.187271, 40.305244], [-75.192855, 40.31007]]]]}}, {"type": "Feature", "properties": {"statewide_rank": 29, "municipality": "Wrightstown", "county": "Bucks County", "households_200k_plus_pct": 43.2, "households_200k_plus_display": "43.2%", "median_household_income": 188553.0, "median_household_income_display": "$188,553", "median_household_income_range_display": "$150,411 to $226,695", "geoid": "4201786624", "state_fips": "42", "county_fips": "017", "county_subdivision_fips": "86624", "census_name": "Wrightstown township"}, "geometry": {"type": "Polygon", "coordinates": [[[-75.040852, 40.260754], [-75.022767, 40.278083], [-75.019482, 40.281899], [-75.019295, 40.281957], [-75.005817, 40.295503], [-74.999234, 40.301949], [-74.955043, 40.276746], [-74.960524, 40.271289], [-74.969318, 40.262524], [-74.985219, 40.246269], [-74.988217, 40.242009], [-74.992273, 40.240523], [-74.994666, 40.241635], [-74.995856, 40.243337], [-74.99566, 40.24549], [-74.994565, 40.248857], [-74.995689, 40.250599], [-74.998046, 40.250218], [-75.001363, 40.248173], [-75.003207, 40.248539], [-75.005772, 40.251841], [-75.008754, 40.250997], [-75.010117, 40.249461], [-75.015702, 40.24928], [-75.019523, 40.248289], [-75.021463, 40.248694], [-75.024468, 40.252064], [-75.026115, 40.252919], [-75.029172, 40.253279], [-75.03276, 40.255665], [-75.033911, 40.255602], [-75.040852, 40.260754]]]}}, {"type": "Feature", "properties": {"statewide_rank": 249, "municipality": "West Rockhill", "county": "Bucks County", "households_200k_plus_pct": 18.4, "households_200k_plus_display": "18.4%", "median_household_income": 104354.0, "median_household_income_display": "$104,354", "median_household_income_range_display": "$81,266 to $127,442", "geoid": "4201783960", "state_fips": "42", "county_fips": "017", "county_subdivision_fips": "83960", "census_name": "West Rockhill township"}, "geometry": {"type": "Polygon", "coordinates": [[[-75.404103, 40.374776], [-75.401972, 40.379862], [-75.394029, 40.378294], [-75.393895, 40.380708], [-75.392304, 40.38054], [-75.391768, 40.382549], [-75.390712, 40.382403], [-75.39063, 40.38437], [-75.384885, 40.391167], [-75.383927, 40.392629], [-75.38345, 40.395025], [-75.381885, 40.39415], [-75.3796, 40.396539], [-75.370314, 40.397272], [-75.366809, 40.397584], [-75.34751, 40.398817], [-75.348585, 40.405293], [-75.338302, 40.406261], [-75.33633, 40.406422], [-75.327369, 40.397707], [-75.32471, 40.395741], [-75.324002, 40.393804], [-75.321257, 40.391145], [-75.312533, 40.382699], [-75.312395, 40.376544], [-75.313105, 40.369928], [-75.315937, 40.369752], [-75.322318, 40.363073], [-75.321238, 40.360923], [-75.317742, 40.35876], [-75.315051, 40.357149], [-75.309046, 40.351586], [-75.306243, 40.349741], [-75.303395, 40.349474], [-75.30081, 40.350748], [-75.299743, 40.349914], [-75.29739, 40.351175], [-75.299872, 40.352706], [-75.296652, 40.35348], [-75.294926, 40.352478], [-75.296674, 40.350751], [-75.303578, 40.343795], [-75.316181, 40.331062], [-75.320408, 40.334221], [-75.324777, 40.336586], [-75.330715, 40.330666], [-75.332417, 40.331715], [-75.333919, 40.330272], [-75.334614, 40.328809], [-75.339341, 40.331689], [-75.353219, 40.340182], [-75.372456, 40.351721], [-75.402254, 40.36962], [-75.410402, 40.3745], [-75.404103, 40.374776]]]}}, {"type": "Feature", "properties": {"statewide_rank": 30, "municipality": "Lower Makefield", "county": "Bucks County", "households_200k_plus_pct": 43.1, "households_200k_plus_display": "43.1%", "median_household_income": 175206.0, "median_household_income_display": "$175,206", "median_household_income_range_display": "$166,016 to $184,396", "geoid": "4201744968", "state_fips": "42", "county_fips": "017", "county_subdivision_fips": "44968", "census_name": "Lower Makefield township"}, "geometry": {"type": "Polygon", "coordinates": [[[-74.914264, 40.262994], [-74.90921, 40.262984], [-74.899348, 40.264004], [-74.889142, 40.265371], [-74.853118148928, 40.269729984337], [-74.853108, 40.269707], [-74.8467645734456, 40.2590705375359], [-74.8467179967915, 40.2589924392354], [-74.846608, 40.258808], [-74.8424158100252, 40.2507160984207], [-74.846169, 40.249738], [-74.849108, 40.248491], [-74.851638, 40.247399], [-74.850321, 40.244417], [-74.846507, 40.240359], [-74.84588, 40.236615], [-74.845374, 40.237866], [-74.843297, 40.238114], [-74.842182, 40.231618], [-74.835213, 40.232523], [-74.833629, 40.233903], [-74.833058, 40.232773], [-74.828045, 40.233426], [-74.824088, 40.233915], [-74.826918, 40.236092], [-74.830123, 40.238207], [-74.8261781232174, 40.2423688289614], [-74.823907, 40.241508], [-74.819507, 40.238508], [-74.8190335181586, 40.2383299625323], [-74.795306, 40.229408], [-74.7894333138351, 40.2261176297374], [-74.7835243008192, 40.2228069061328], [-74.7819525768579, 40.2219262948353], [-74.784756, 40.21998], [-74.78896, 40.217072], [-74.797929, 40.211076], [-74.800083, 40.210255], [-74.801592, 40.209693], [-74.800176, 40.208763], [-74.802764, 40.207735], [-74.802813, 40.207737], [-74.822372, 40.205624], [-74.831116, 40.204603], [-74.830987, 40.20433], [-74.830118, 40.201355], [-74.834098, 40.201131], [-74.84764, 40.200398], [-74.847017, 40.195158], [-74.86489, 40.193551], [-74.871055, 40.192989], [-74.87115, 40.193208], [-74.874369, 40.200536], [-74.876712, 40.200011], [-74.877508, 40.201828], [-74.883827, 40.216266], [-74.887551, 40.224735], [-74.887906, 40.225691], [-74.893747, 40.232374], [-74.896337, 40.235626], [-74.896358, 40.239517], [-74.901744, 40.242426], [-74.903698, 40.242053], [-74.905547, 40.245249], [-74.908994, 40.251201], [-74.911793, 40.251035], [-74.914264, 40.262994]]]}}, {"type": "Feature", "properties": {"statewide_rank": 21, "municipality": "Buckingham", "county": "Bucks County", "households_200k_plus_pct": 46.3, "households_200k_plus_display": "46.3%", "median_household_income": 190230.0, "median_household_income_display": "$190,230", "median_household_income_range_display": "$173,008 to $207,452", "geoid": "4201709816", "state_fips": "42", "county_fips": "017", "county_subdivision_fips": "09816", "census_name": "Buckingham township"}, "geometry": {"type": "Polygon", "coordinates": [[[-75.131929, 40.329665], [-75.122531, 40.339166], [-75.112712, 40.34884], [-75.113486, 40.349282], [-75.113485, 40.349589], [-75.097341, 40.365593], [-75.09907, 40.36645], [-75.083984, 40.380342], [-75.08057, 40.3783], [-75.078047, 40.376573], [-75.069399, 40.371415], [-75.042476, 40.354634], [-75.04221, 40.35397], [-75.040925, 40.353654], [-75.032495, 40.348736], [-75.014068, 40.337521], [-74.988652, 40.322217], [-74.985989, 40.323685], [-74.98182, 40.321077], [-74.981046, 40.319169], [-74.999234, 40.301949], [-75.005817, 40.295503], [-75.019295, 40.281957], [-75.019482, 40.281899], [-75.022767, 40.278083], [-75.040852, 40.260754], [-75.044242, 40.263091], [-75.04605, 40.25949], [-75.048871, 40.257011], [-75.054808, 40.255837], [-75.057279, 40.257548], [-75.055049, 40.263225], [-75.053229, 40.265973], [-75.053171, 40.26782], [-75.055172, 40.269126], [-75.058112, 40.268989], [-75.060755, 40.265834], [-75.061752, 40.262996], [-75.064222, 40.262859], [-75.065801, 40.263397], [-75.069518, 40.26628], [-75.072461, 40.269071], [-75.072702, 40.270246], [-75.074733, 40.272061], [-75.073393, 40.273407], [-75.084473, 40.27999], [-75.089055, 40.282745], [-75.100592, 40.289914], [-75.082224, 40.296216], [-75.082607, 40.300537], [-75.105509, 40.313882], [-75.115893, 40.320065], [-75.114996, 40.32096], [-75.113414, 40.319807], [-75.108916, 40.324306], [-75.113492, 40.327514], [-75.115009, 40.325998], [-75.116845, 40.327146], [-75.119044, 40.325022], [-75.117149, 40.323858], [-75.119058, 40.321969], [-75.124079, 40.325012], [-75.128766, 40.327776], [-75.131929, 40.329665]]]}}, {"type": "Feature", "properties": {"statewide_rank": 503, "municipality": "Richland", "county": "Bucks County", "households_200k_plus_pct": 12.1, "households_200k_plus_display": "12.1%", "median_household_income": 99476.0, "median_household_income_display": "$99,476", "median_household_income_range_display": "$86,410 to $112,542", "geoid": "4201764536", "state_fips": "42", "county_fips": "017", "county_subdivision_fips": "64536", "census_name": "Richland township"}, "geometry": {"type": "MultiPolygon", "coordinates": [[[[-75.360946, 40.441295], [-75.359071, 40.441227], [-75.359083, 40.44078], [-75.359087, 40.44071], [-75.360906, 40.440771], [-75.360946, 40.441295]]], [[[-75.381117, 40.486427], [-75.340284, 40.489368], [-75.300375, 40.493455], [-75.297177, 40.473889], [-75.302264, 40.473416], [-75.302406, 40.468878], [-75.302105, 40.466416], [-75.301053, 40.453358], [-75.298854, 40.439419], [-75.298459, 40.436349], [-75.296685, 40.426248], [-75.296269, 40.424892], [-75.294062, 40.410955], [-75.294478, 40.410903], [-75.314107, 40.408799], [-75.33633, 40.406422], [-75.338302, 40.406261], [-75.348585, 40.405293], [-75.34751, 40.398817], [-75.366809, 40.397584], [-75.370314, 40.397272], [-75.371017, 40.405784], [-75.365089, 40.406069], [-75.366194, 40.413897], [-75.36785, 40.414141], [-75.367263, 40.421232], [-75.368003, 40.42204], [-75.368825, 40.431917], [-75.367553, 40.435011], [-75.366178, 40.436252], [-75.362962, 40.436912], [-75.358143, 40.43731], [-75.35727, 40.434828], [-75.354264, 40.435051], [-75.354781, 40.434051], [-75.353327, 40.433574], [-75.353656, 40.431228], [-75.351094, 40.430499], [-75.351376, 40.429034], [-75.350807, 40.42617], [-75.348899, 40.427128], [-75.348676, 40.426682], [-75.345707, 40.42721], [-75.343221, 40.429228], [-75.344335, 40.430367], [-75.340985, 40.43153], [-75.340665, 40.433356], [-75.336565, 40.434076], [-75.336455, 40.435503], [-75.33085, 40.436518], [-75.321078, 40.43737], [-75.319169, 40.436463], [-75.319025, 40.438519], [-75.320478, 40.438963], [-75.323692, 40.438816], [-75.325444, 40.439967], [-75.326119, 40.440195], [-75.32811, 40.44368], [-75.32838, 40.443653], [-75.327933, 40.445544], [-75.328718, 40.446908], [-75.329074, 40.449891], [-75.33247, 40.449663], [-75.333576, 40.451618], [-75.334827, 40.450148], [-75.334153, 40.448567], [-75.33539, 40.447445], [-75.339423, 40.446942], [-75.341986, 40.446622], [-75.342428, 40.448872], [-75.346188, 40.448456], [-75.34542, 40.446233], [-75.352582, 40.445374], [-75.352711, 40.4462], [-75.355751, 40.445959], [-75.355936, 40.447228], [-75.359031, 40.447294], [-75.359398, 40.449515], [-75.361916, 40.449379], [-75.359599, 40.445519], [-75.360128, 40.443236], [-75.361176, 40.444003], [-75.36701, 40.4436], [-75.369891, 40.441127], [-75.369262, 40.437285], [-75.370328, 40.435946], [-75.371574, 40.443535], [-75.373646, 40.455423], [-75.379336, 40.454941], [-75.380014, 40.467279], [-75.380462, 40.475185], [-75.380812, 40.48154], [-75.381117, 40.486427]], [[-75.323803, 40.472232], [-75.323957, 40.46617], [-75.322747, 40.465957], [-75.320416, 40.465547], [-75.318145, 40.468649], [-75.317844, 40.46924], [-75.318089, 40.471994], [-75.318936, 40.479072], [-75.319466, 40.479371], [-75.324182, 40.478709], [-75.323803, 40.472232]]]]}}, {"type": "Feature", "properties": {"statewide_rank": 130, "municipality": "Durham", "county": "Bucks County", "households_200k_plus_pct": 26.0, "households_200k_plus_display": "26.0%", "median_household_income": 116458.0, "median_household_income_display": "$116,458", "median_household_income_range_display": "$89,331 to $143,585", "geoid": "4201720480", "state_fips": "42", "county_fips": "017", "county_subdivision_fips": "20480", "census_name": "Durham township"}, "geometry": {"type": "Polygon", "coordinates": [[[-75.25654, 40.582731], [-75.236848, 40.590748], [-75.228669, 40.594469], [-75.209036, 40.603088], [-75.207645, 40.601211], [-75.204492, 40.595454], [-75.207602, 40.594121], [-75.20602, 40.591923], [-75.207039, 40.59153], [-75.207947, 40.588822], [-75.199441, 40.588841], [-75.199451, 40.58644], [-75.1916649920295, 40.5857353256579], [-75.194656, 40.58194], [-75.195114, 40.579689], [-75.19487, 40.578591], [-75.194046, 40.576256], [-75.192352, 40.574257], [-75.186737, 40.569406], [-75.183151, 40.567354], [-75.175307, 40.564996], [-75.168609, 40.564111], [-75.166931813911, 40.5641066155818], [-75.179033, 40.559656], [-75.190027, 40.555624], [-75.19232, 40.554979], [-75.223569, 40.543106], [-75.228019, 40.541736], [-75.247377, 40.569572], [-75.25654, 40.582731]]]}}, {"type": "Feature", "properties": {"statewide_rank": 218, "municipality": "Doylestown", "county": "Bucks County", "households_200k_plus_pct": 19.6, "households_200k_plus_display": "19.6%", "median_household_income": 99322.0, "median_household_income_display": "$99,322", "median_household_income_range_display": "$90,346 to $108,298", "geoid": "4201719784", "state_fips": "42", "county_fips": "017", "county_subdivision_fips": "19784", "census_name": "Doylestown borough"}, "geometry": {"type": "Polygon", "coordinates": [[[-75.145023, 40.311852], [-75.14449, 40.31153], [-75.143823, 40.312187], [-75.140678, 40.310244], [-75.137577, 40.313102], [-75.143554, 40.316551], [-75.143069, 40.317828], [-75.140032, 40.31634], [-75.136492, 40.314075], [-75.135461, 40.315022], [-75.136704, 40.315858], [-75.135921, 40.316679], [-75.141377, 40.320296], [-75.143622, 40.322141], [-75.138449, 40.32682], [-75.130699, 40.322022], [-75.130718, 40.324228], [-75.128766, 40.327776], [-75.124079, 40.325012], [-75.128618, 40.320727], [-75.125941, 40.319033], [-75.124505, 40.318092], [-75.12334, 40.319141], [-75.118776, 40.321804], [-75.119058, 40.321969], [-75.117149, 40.323858], [-75.119044, 40.325022], [-75.116845, 40.327146], [-75.115009, 40.325998], [-75.113492, 40.327514], [-75.108916, 40.324306], [-75.113414, 40.319807], [-75.114996, 40.32096], [-75.115893, 40.320065], [-75.105509, 40.313882], [-75.105904, 40.313735], [-75.109105, 40.312913], [-75.109266, 40.313736], [-75.110319, 40.313569], [-75.110154, 40.312762], [-75.115069, 40.312275], [-75.118673, 40.308914], [-75.12164, 40.31052], [-75.123587, 40.308642], [-75.121489, 40.307518], [-75.122876, 40.305691], [-75.1213, 40.303522], [-75.122462, 40.301771], [-75.122534, 40.299599], [-75.123685, 40.298555], [-75.127969, 40.298042], [-75.128468, 40.301789], [-75.129955, 40.301661], [-75.130406, 40.303773], [-75.131823, 40.304702], [-75.134607, 40.302142], [-75.136169, 40.301518], [-75.142913, 40.305145], [-75.142269, 40.305614], [-75.148583, 40.309516], [-75.145023, 40.311852]]]}}, {"type": "Feature", "properties": {"statewide_rank": 376, "municipality": "Warminster", "county": "Bucks County", "households_200k_plus_pct": 14.7, "households_200k_plus_display": "14.7%", "median_household_income": 96391.0, "median_household_income_display": "$96,391", "median_household_income_range_display": "$88,275 to $104,507", "geoid": "4201780952", "state_fips": "42", "county_fips": "017", "county_subdivision_fips": "80952", "census_name": "Warminster township"}, "geometry": {"type": "Polygon", "coordinates": [[[-75.137782, 40.210886], [-75.1266, 40.222004], [-75.120486, 40.228234], [-75.119749, 40.228988], [-75.110993, 40.23781], [-75.1028, 40.232883], [-75.0949, 40.228288], [-75.093573, 40.227548], [-75.083408, 40.221626], [-75.07341, 40.215629], [-75.075974, 40.212572], [-75.078164, 40.209965], [-75.075884, 40.208663], [-75.079718, 40.204672], [-75.076086, 40.202534], [-75.074131, 40.201499], [-75.072954, 40.200808], [-75.069384, 40.2044], [-75.072171, 40.206097], [-75.066178, 40.211377], [-75.057191, 40.206043], [-75.049268, 40.201334], [-75.047252, 40.200144], [-75.043802, 40.198087], [-75.049312, 40.192702], [-75.058763, 40.18331], [-75.071198, 40.171032], [-75.080795, 40.176872], [-75.08548, 40.179699], [-75.089646, 40.182153], [-75.090209, 40.182489], [-75.094556, 40.185051], [-75.096836, 40.186395], [-75.102081, 40.189472], [-75.103081, 40.190063], [-75.104874, 40.191109], [-75.106878, 40.192279], [-75.107799, 40.192821], [-75.11603, 40.197738], [-75.118627, 40.199276], [-75.12275, 40.201729], [-75.124599, 40.202823], [-75.129821, 40.205955], [-75.137782, 40.210886]]]}}, {"type": "Feature", "properties": {"statewide_rank": 88, "municipality": "Warrington", "county": "Bucks County", "households_200k_plus_pct": 30.8, "households_200k_plus_display": "30.8%", "median_household_income": 133179.0, "median_household_income_display": "$133,179", "median_household_income_range_display": "$117,837 to $148,521", "geoid": "4201781048", "state_fips": "42", "county_fips": "017", "county_subdivision_fips": "81048", "census_name": "Warrington township"}, "geometry": {"type": "Polygon", "coordinates": [[[-75.207611, 40.26371], [-75.201327, 40.269871], [-75.194868, 40.276162], [-75.191689, 40.279132], [-75.18751, 40.27994], [-75.185457, 40.283129], [-75.176959, 40.278028], [-75.164211, 40.270301], [-75.156478, 40.265592], [-75.152016, 40.262868], [-75.143495, 40.271404], [-75.130873, 40.264306], [-75.125785, 40.261223], [-75.119091, 40.26731], [-75.116154, 40.265533], [-75.112133, 40.262702], [-75.117162, 40.25788], [-75.112466, 40.255026], [-75.113123, 40.254384], [-75.122519, 40.244918], [-75.110993, 40.23781], [-75.119749, 40.228988], [-75.120486, 40.228234], [-75.1266, 40.222004], [-75.137782, 40.210886], [-75.139374, 40.211853], [-75.158836, 40.223583], [-75.177401, 40.235047], [-75.180046, 40.236687], [-75.187646, 40.241455], [-75.192983, 40.244737], [-75.206473, 40.252855], [-75.214133, 40.257422], [-75.207611, 40.26371]]]}}, {"type": "Feature", "properties": {"statewide_rank": 757, "municipality": "Silverdale", "county": "Bucks County", "households_200k_plus_pct": 9.1, "households_200k_plus_display": "9.1%", "median_household_income": 107321.0, "median_household_income_display": "$107,321", "median_household_income_range_display": "$84,205 to $130,437", "geoid": "4201770744", "state_fips": "42", "county_fips": "017", "county_subdivision_fips": "70744", "census_name": "Silverdale borough"}, "geometry": {"type": "Polygon", "coordinates": [[[-75.279212, 40.342605], [-75.276453, 40.346239], [-75.278776, 40.347457], [-75.276649, 40.350849], [-75.275269, 40.351674], [-75.269697, 40.354417], [-75.266975, 40.352316], [-75.268435, 40.35081], [-75.268026, 40.349543], [-75.263659, 40.34677], [-75.266625, 40.344789], [-75.269394, 40.342769], [-75.272234, 40.340775], [-75.274951, 40.34334], [-75.277488, 40.341495], [-75.279212, 40.342605]]]}}, {"type": "Feature", "properties": {"statewide_rank": 329, "municipality": "Hulmeville", "county": "Bucks County", "households_200k_plus_pct": 15.8, "households_200k_plus_display": "15.8%", "median_household_income": 121625.0, "median_household_income_display": "$121,625", "median_household_income_range_display": "$108,007 to $135,243", "geoid": "4201736192", "state_fips": "42", "county_fips": "017", "county_subdivision_fips": "36192", "census_name": "Hulmeville borough"}, "geometry": {"type": "Polygon", "coordinates": [[[-74.918076, 40.145724], [-74.913105, 40.148959], [-74.90919, 40.145481], [-74.907561, 40.146631], [-74.900376, 40.140641], [-74.898158, 40.133431], [-74.898945, 40.133049], [-74.902897, 40.135792], [-74.905182, 40.138902], [-74.909618, 40.141642], [-74.912299, 40.14176], [-74.913987, 40.142223], [-74.917855, 40.145433], [-74.918076, 40.145724]]]}}]}